{
"type": "FeatureCollection",
"name": "amenazas",
"xy_coordinate_resolution": 1e-05,
"features": [
{ "type": "Feature", "properties": { "localidad": "ARTIGAS", "departamento": "ARTIGAS", "ribera": 1, "canadas": 1, "drenaje": 1, "presas": 0, "accesibilidad": 1, "costas": 0, "total_tipos_amenaza": 4 }, "geometry": { "type": "Point", "coordinates": [ -56.48692, -30.42584 ] } },
{ "type": "Feature", "properties": { "localidad": "BELLA UNION", "departamento": "ARTIGAS", "ribera": 1, "canadas": 1, "drenaje": 1, "presas": 1, "accesibilidad": 0, "costas": 0, "total_tipos_amenaza": 4 }, "geometry": { "type": "Point", "coordinates": [ -57.59821, -30.25981 ] } },
{ "type": "Feature", "properties": { "localidad": "TOMAS GOMENSORO", "departamento": "ARTIGAS", "ribera": 0, "canadas": 1, "drenaje": 1, "presas": 0, "accesibilidad": 0, "costas": 0, "total_tipos_amenaza": 2 }, "geometry": { "type": "Point", "coordinates": [ -57.43819, -30.4311 ] } },
{ "type": "Feature", "properties": { "localidad": "BALTASAR BRUM", "departamento": "ARTIGAS", "ribera": 0, "canadas": 1, "drenaje": 1, "presas": 0, "accesibilidad": 0, "costas": 0, "total_tipos_amenaza": 2 }, "geometry": { "type": "Point", "coordinates": [ -57.32944, -30.72018 ] } },
{ "type": "Feature", "properties": { "localidad": "BERNABE RIVERA", "departamento": "ARTIGAS", "ribera": 0, "canadas": 0, "drenaje": 0, "presas": 0, "accesibilidad": 1, "costas": 0, "total_tipos_amenaza": 1 }, "geometry": { "type": "Point", "coordinates": [ -56.97004, -30.29828 ] } },
{ "type": "Feature", "properties": { "localidad": "FRANQUIA", "departamento": "ARTIGAS", "ribera": 0, "canadas": 0, "drenaje": 0, "presas": 1, "accesibilidad": 0, "costas": 0, "total_tipos_amenaza": 1 }, "geometry": { "type": "Point", "coordinates": [ -57.60355, -30.21291 ] } },
{ "type": "Feature", "properties": { "localidad": "SEQUEIRA", "departamento": "ARTIGAS", "ribera": 0, "canadas": 1, "drenaje": 0, "presas": 0, "accesibilidad": 1, "costas": 0, "total_tipos_amenaza": 2 }, "geometry": { "type": "Point", "coordinates": [ -56.87072, -30.99713 ] } },
{ "type": "Feature", "properties": { "localidad": "CUAREIM", "departamento": "ARTIGAS", "ribera": 0, "canadas": 0, "drenaje": 0, "presas": 1, "accesibilidad": 0, "costas": 0, "total_tipos_amenaza": 1 }, "geometry": { "type": "Point", "coordinates": [ -57.56968, -30.23172 ] } },
{ "type": "Feature", "properties": { "localidad": "JAVIER DE VIANA", "departamento": "ARTIGAS", "ribera": 0, "canadas": 0, "drenaje": 0, "presas": 0, "accesibilidad": 1, "costas": 0, "total_tipos_amenaza": 1 }, "geometry": { "type": "Point", "coordinates": [ -56.78571, -30.43308 ] } },
{ "type": "Feature", "properties": { "localidad": "MONES QUINTELA", "departamento": "ARTIGAS", "ribera": 0, "canadas": 0, "drenaje": 0, "presas": 1, "accesibilidad": 1, "costas": 0, "total_tipos_amenaza": 2 }, "geometry": { "type": "Point", "coordinates": [ -57.66343, -30.37447 ] } },
{ "type": "Feature", "properties": { "localidad": "PASO CAMPAMENTO", "departamento": "ARTIGAS", "ribera": 0, "canadas": 0, "drenaje": 0, "presas": 0, "accesibilidad": 1, "costas": 0, "total_tipos_amenaza": 1 }, "geometry": { "type": "Point", "coordinates": [ -56.78216, -30.78727 ] } },
{ "type": "Feature", "properties": { "localidad": "PASO FARIAS", "departamento": "ARTIGAS", "ribera": 0, "canadas": 0, "drenaje": 0, "presas": 0, "accesibilidad": 1, "costas": 0, "total_tipos_amenaza": 1 }, "geometry": { "type": "Point", "coordinates": [ -57.12532, -30.47649 ] } },
{ "type": "Feature", "properties": { "localidad": "RINCON DE PACHECO", "departamento": "ARTIGAS", "ribera": 0, "canadas": 0, "drenaje": 0, "presas": 0, "accesibilidad": 1, "costas": 0, "total_tipos_amenaza": 1 }, "geometry": { "type": "Point", "coordinates": [ -56.16467, -30.70247 ] } },
{ "type": "Feature", "properties": { "localidad": "LAS PIEDRAS", "departamento": "CANELONES", "ribera": 1, "canadas": 1, "drenaje": 1, "presas": 0, "accesibilidad": 0, "costas": 0, "total_tipos_amenaza": 3 }, "geometry": { "type": "Point", "coordinates": [ -56.21568, -34.71922 ] } },
{ "type": "Feature", "properties": { "localidad": "LA PAZ", "departamento": "CANELONES", "ribera": 1, "canadas": 1, "drenaje": 1, "presas": 0, "accesibilidad": 0, "costas": 0, "total_tipos_amenaza": 3 }, "geometry": { "type": "Point", "coordinates": [ -56.2279, -34.75435 ] } },
{ "type": "Feature", "properties": { "localidad": "PANDO", "departamento": "CANELONES", "ribera": 0, "canadas": 1, "drenaje": 0, "presas": 0, "accesibilidad": 0, "costas": 0, "total_tipos_amenaza": 1 }, "geometry": { "type": "Point", "coordinates": [ -55.96658, -34.72363 ] } },
{ "type": "Feature", "properties": { "localidad": "SANTA LUCIA", "departamento": "CANELONES", "ribera": 1, "canadas": 1, "drenaje": 0, "presas": 1, "accesibilidad": 1, "costas": 0, "total_tipos_amenaza": 4 }, "geometry": { "type": "Point", "coordinates": [ -56.38519, -34.46021 ] } },
{ "type": "Feature", "properties": { "localidad": "SOFIA SANTOS", "departamento": "CANELONES", "ribera": 0, "canadas": 0, "drenaje": 0, "presas": 1, "accesibilidad": 0, "costas": 0, "total_tipos_amenaza": 1 }, "geometry": { "type": "Point", "coordinates": [ -56.36538, -34.67002 ] } },
{ "type": "Feature", "properties": { "localidad": "PROGRESO", "departamento": "CANELONES", "ribera": 1, "canadas": 1, "drenaje": 0, "presas": 0, "accesibilidad": 0, "costas": 0, "total_tipos_amenaza": 2 }, "geometry": { "type": "Point", "coordinates": [ -56.22039, -34.67439 ] } },
{ "type": "Feature", "properties": { "localidad": "SAN RAMON", "departamento": "CANELONES", "ribera": 1, "canadas": 1, "drenaje": 0, "presas": 0, "accesibilidad": 1, "costas": 0, "total_tipos_amenaza": 3 }, "geometry": { "type": "Point", "coordinates": [ -55.95552, -34.29228 ] } },
{ "type": "Feature", "properties": { "localidad": "BARROS BLANCOS", "departamento": "CANELONES", "ribera": 1, "canadas": 1, "drenaje": 1, "presas": 0, "accesibilidad": 0, "costas": 0, "total_tipos_amenaza": 3 }, "geometry": { "type": "Point", "coordinates": [ -55.9952, -34.75241 ] } },
{ "type": "Feature", "properties": { "localidad": "COLONIA NICOLICH", "departamento": "CANELONES", "ribera": 0, "canadas": 1, "drenaje": 1, "presas": 0, "accesibilidad": 0, "costas": 0, "total_tipos_amenaza": 2 }, "geometry": { "type": "Point", "coordinates": [ -56.02302, -34.81887 ] } },
{ "type": "Feature", "properties": { "localidad": "JOAQUIN SUAREZ", "departamento": "CANELONES", "ribera": 0, "canadas": 1, "drenaje": 0, "presas": 0, "accesibilidad": 0, "costas": 0, "total_tipos_amenaza": 1 }, "geometry": { "type": "Point", "coordinates": [ -56.03284, -34.73597 ] } },
{ "type": "Feature", "properties": { "localidad": "PASO CARRASCO", "departamento": "CANELONES", "ribera": 1, "canadas": 1, "drenaje": 1, "presas": 0, "accesibilidad": 0, "costas": 0, "total_tipos_amenaza": 3 }, "geometry": { "type": "Point", "coordinates": [ -56.0419, -34.85794 ] } },
{ "type": "Feature", "properties": { "localidad": "SANTA ROSA", "departamento": "CANELONES", "ribera": 0, "canadas": 1, "drenaje": 0, "presas": 0, "accesibilidad": 0, "costas": 0, "total_tipos_amenaza": 1 }, "geometry": { "type": "Point", "coordinates": [ -56.03905, -34.49819 ] } },
{ "type": "Feature", "properties": { "localidad": "SAUCE", "departamento": "CANELONES", "ribera": 0, "canadas": 1, "drenaje": 0, "presas": 0, "accesibilidad": 1, "costas": 0, "total_tipos_amenaza": 2 }, "geometry": { "type": "Point", "coordinates": [ -56.06426, -34.65192 ] } },
{ "type": "Feature", "properties": { "localidad": "TALA", "departamento": "CANELONES", "ribera": 0, "canadas": 1, "drenaje": 0, "presas": 0, "accesibilidad": 0, "costas": 0, "total_tipos_amenaza": 1 }, "geometry": { "type": "Point", "coordinates": [ -55.76543, -34.34329 ] } },
{ "type": "Feature", "properties": { "localidad": "FRACC. CNO. ANDALUZ Y R.84", "departamento": "CANELONES", "ribera": 1, "canadas": 1, "drenaje": 0, "presas": 0, "accesibilidad": 0, "costas": 0, "total_tipos_amenaza": 2 }, "geometry": { "type": "Point", "coordinates": [ -56.07359, -34.75885 ] } },
{ "type": "Feature", "properties": { "localidad": "ATLANTIDA", "departamento": "CANELONES", "ribera": 0, "canadas": 0, "drenaje": 1, "presas": 0, "accesibilidad": 0, "costas": 1, "total_tipos_amenaza": 2 }, "geometry": { "type": "Point", "coordinates": [ -55.75835, -34.76289 ] } },
{ "type": "Feature", "properties": { "localidad": "ESTACION ATLANTIDA", "departamento": "CANELONES", "ribera": 0, "canadas": 1, "drenaje": 0, "presas": 0, "accesibilidad": 0, "costas": 0, "total_tipos_amenaza": 1 }, "geometry": { "type": "Point", "coordinates": [ -55.7623, -34.74165 ] } },
{ "type": "Feature", "properties": { "localidad": "CERRILLOS", "departamento": "CANELONES", "ribera": 0, "canadas": 1, "drenaje": 0, "presas": 0, "accesibilidad": 0, "costas": 0, "total_tipos_amenaza": 1 }, "geometry": { "type": "Point", "coordinates": [ -56.36269, -34.60792 ] } },
{ "type": "Feature", "properties": { "localidad": "EMPALME OLMOS", "departamento": "CANELONES", "ribera": 0, "canadas": 1, "drenaje": 0, "presas": 0, "accesibilidad": 0, "costas": 0, "total_tipos_amenaza": 1 }, "geometry": { "type": "Point", "coordinates": [ -55.89674, -34.69208 ] } },
{ "type": "Feature", "properties": { "localidad": "MIGUES", "departamento": "CANELONES", "ribera": 0, "canadas": 1, "drenaje": 0, "presas": 0, "accesibilidad": 0, "costas": 0, "total_tipos_amenaza": 1 }, "geometry": { "type": "Point", "coordinates": [ -55.62742, -34.48715 ] } },
{ "type": "Feature", "properties": { "localidad": "PARQUE DEL PLATA", "departamento": "CANELONES", "ribera": 0, "canadas": 0, "drenaje": 1, "presas": 1, "accesibilidad": 0, "costas": 0, "total_tipos_amenaza": 2 }, "geometry": { "type": "Point", "coordinates": [ -55.71713, -34.75497 ] } },
{ "type": "Feature", "properties": { "localidad": "SAN BAUTISTA", "departamento": "CANELONES", "ribera": 0, "canadas": 1, "drenaje": 0, "presas": 0, "accesibilidad": 0, "costas": 0, "total_tipos_amenaza": 1 }, "geometry": { "type": "Point", "coordinates": [ -55.96196, -34.43981 ] } },
{ "type": "Feature", "properties": { "localidad": "SAN JACINTO", "departamento": "CANELONES", "ribera": 0, "canadas": 1, "drenaje": 0, "presas": 0, "accesibilidad": 0, "costas": 0, "total_tipos_amenaza": 1 }, "geometry": { "type": "Point", "coordinates": [ -55.87186, -34.54408 ] } },
{ "type": "Feature", "properties": { "localidad": "DR. FRANCISCO SOCA", "departamento": "CANELONES", "ribera": 0, "canadas": 1, "drenaje": 1, "presas": 0, "accesibilidad": 0, "costas": 0, "total_tipos_amenaza": 2 }, "geometry": { "type": "Point", "coordinates": [ -55.70208, -34.68484 ] } },
{ "type": "Feature", "properties": { "localidad": "TOLEDO", "departamento": "CANELONES", "ribera": 1, "canadas": 1, "drenaje": 0, "presas": 0, "accesibilidad": 0, "costas": 0, "total_tipos_amenaza": 2 }, "geometry": { "type": "Point", "coordinates": [ -56.09022, -34.74042 ] } },
{ "type": "Feature", "properties": { "localidad": "MONTES", "departamento": "CANELONES", "ribera": 0, "canadas": 1, "drenaje": 0, "presas": 0, "accesibilidad": 0, "costas": 0, "total_tipos_amenaza": 1 }, "geometry": { "type": "Point", "coordinates": [ -55.56457, -34.49666 ] } },
{ "type": "Feature", "properties": { "localidad": "SAN JOSE DE CARRASCO", "departamento": "CANELONES", "ribera": 0, "canadas": 0, "drenaje": 1, "presas": 0, "accesibilidad": 0, "costas": 1, "total_tipos_amenaza": 2 }, "geometry": { "type": "Point", "coordinates": [ -55.99393, -34.84084 ] } },
{ "type": "Feature", "properties": { "localidad": "AGUAS CORRIENTES", "departamento": "CANELONES", "ribera": 1, "canadas": 1, "drenaje": 0, "presas": 1, "accesibilidad": 1, "costas": 0, "total_tipos_amenaza": 4 }, "geometry": { "type": "Point", "coordinates": [ -56.39196, -34.52067 ] } },
{ "type": "Feature", "properties": { "localidad": "BARRA DE CARRASCO", "departamento": "CANELONES", "ribera": 1, "canadas": 1, "drenaje": 0, "presas": 0, "accesibilidad": 0, "costas": 1, "total_tipos_amenaza": 3 }, "geometry": { "type": "Point", "coordinates": [ -56.02683, -34.87009 ] } },
{ "type": "Feature", "properties": { "localidad": "LA FLORESTA", "departamento": "CANELONES", "ribera": 0, "canadas": 0, "drenaje": 1, "presas": 1, "accesibilidad": 0, "costas": 1, "total_tipos_amenaza": 3 }, "geometry": { "type": "Point", "coordinates": [ -55.68592, -34.74889 ] } },
{ "type": "Feature", "properties": { "localidad": "ESTACION LA FLORESTA", "departamento": "CANELONES", "ribera": 0, "canadas": 0, "drenaje": 0, "presas": 1, "accesibilidad": 0, "costas": 0, "total_tipos_amenaza": 1 }, "geometry": { "type": "Point", "coordinates": [ -55.68345, -34.73415 ] } },
{ "type": "Feature", "properties": { "localidad": "LAS TOSCAS", "departamento": "CANELONES", "ribera": 0, "canadas": 0, "drenaje": 1, "presas": 0, "accesibilidad": 0, "costas": 0, "total_tipos_amenaza": 1 }, "geometry": { "type": "Point", "coordinates": [ -55.74022, -34.76723 ] } },
{ "type": "Feature", "properties": { "localidad": "PARQUE CARRASCO", "departamento": "CANELONES", "ribera": 0, "canadas": 0, "drenaje": 0, "presas": 0, "accesibilidad": 0, "costas": 1, "total_tipos_amenaza": 1 }, "geometry": { "type": "Point", "coordinates": [ -56.00825, -34.857 ] } },
{ "type": "Feature", "properties": { "localidad": "SALINAS", "departamento": "CANELONES", "ribera": 0, "canadas": 0, "drenaje": 1, "presas": 0, "accesibilidad": 0, "costas": 1, "total_tipos_amenaza": 2 }, "geometry": { "type": "Point", "coordinates": [ -55.84012, -34.77471 ] } },
{ "type": "Feature", "properties": { "localidad": "SAN ANTONIO", "departamento": "CANELONES", "ribera": 0, "canadas": 1, "drenaje": 0, "presas": 0, "accesibilidad": 0, "costas": 0, "total_tipos_amenaza": 1 }, "geometry": { "type": "Point", "coordinates": [ -56.08249, -34.45054 ] } },
{ "type": "Feature", "properties": { "localidad": "VILLA AEROPARQUE", "departamento": "CANELONES", "ribera": 0, "canadas": 1, "drenaje": 0, "presas": 0, "accesibilidad": 0, "costas": 0, "total_tipos_amenaza": 1 }, "geometry": { "type": "Point", "coordinates": [ -55.99469, -34.79108 ] } },
{ "type": "Feature", "properties": { "localidad": "CASTELLANOS", "departamento": "CANELONES", "ribera": 0, "canadas": 1, "drenaje": 0, "presas": 0, "accesibilidad": 0, "costas": 0, "total_tipos_amenaza": 1 }, "geometry": { "type": "Point", "coordinates": [ -55.95078, -34.37889 ] } },
{ "type": "Feature", "properties": { "localidad": "COSTA AZUL", "departamento": "CANELONES", "ribera": 0, "canadas": 0, "drenaje": 1, "presas": 0, "accesibilidad": 0, "costas": 1, "total_tipos_amenaza": 2 }, "geometry": { "type": "Point", "coordinates": [ -55.65929, -34.76407 ] } },
{ "type": "Feature", "properties": { "localidad": "EL PINAR", "departamento": "CANELONES", "ribera": 1, "canadas": 0, "drenaje": 1, "presas": 0, "accesibilidad": 0, "costas": 1, "total_tipos_amenaza": 3 }, "geometry": { "type": "Point", "coordinates": [ -55.90501, -34.79577 ] } },
{ "type": "Feature", "properties": { "localidad": "LAGOMAR", "departamento": "CANELONES", "ribera": 0, "canadas": 0, "drenaje": 1, "presas": 0, "accesibilidad": 0, "costas": 0, "total_tipos_amenaza": 1 }, "geometry": { "type": "Point", "coordinates": [ -55.98598, -34.83569 ] } },
{ "type": "Feature", "properties": { "localidad": "OLMOS", "departamento": "CANELONES", "ribera": 0, "canadas": 1, "drenaje": 0, "presas": 0, "accesibilidad": 0, "costas": 0, "total_tipos_amenaza": 1 }, "geometry": { "type": "Point", "coordinates": [ -55.92932, -34.69996 ] } },
{ "type": "Feature", "properties": { "localidad": "SAN LUIS", "departamento": "CANELONES", "ribera": 0, "canadas": 0, "drenaje": 1, "presas": 0, "accesibilidad": 0, "costas": 1, "total_tipos_amenaza": 2 }, "geometry": { "type": "Point", "coordinates": [ -55.58544, -34.771 ] } },
{ "type": "Feature", "properties": { "localidad": "SHANGRILA", "departamento": "CANELONES", "ribera": 0, "canadas": 0, "drenaje": 1, "presas": 0, "accesibilidad": 0, "costas": 1, "total_tipos_amenaza": 2 }, "geometry": { "type": "Point", "coordinates": [ -55.99784, -34.84631 ] } },
{ "type": "Feature", "properties": { "localidad": "TOTORAL DEL SAUCE", "departamento": "CANELONES", "ribera": 0, "canadas": 1, "drenaje": 0, "presas": 0, "accesibilidad": 0, "costas": 0, "total_tipos_amenaza": 1 }, "geometry": { "type": "Point", "coordinates": [ -55.99276, -34.66158 ] } },
{ "type": "Feature", "properties": { "localidad": "VILLA SAN JOSE", "departamento": "CANELONES", "ribera": 0, "canadas": 1, "drenaje": 0, "presas": 0, "accesibilidad": 0, "costas": 0, "total_tipos_amenaza": 1 }, "geometry": { "type": "Point", "coordinates": [ -56.07408, -34.71681 ] } },
{ "type": "Feature", "properties": { "localidad": "JARDINES DE PANDO", "departamento": "CANELONES", "ribera": 0, "canadas": 1, "drenaje": 0, "presas": 0, "accesibilidad": 1, "costas": 0, "total_tipos_amenaza": 2 }, "geometry": { "type": "Point", "coordinates": [ -55.9654, -34.68545 ] } },
{ "type": "Feature", "properties": { "localidad": "ARAMINDA", "departamento": "CANELONES", "ribera": 0, "canadas": 0, "drenaje": 1, "presas": 0, "accesibilidad": 0, "costas": 0, "total_tipos_amenaza": 1 }, "geometry": { "type": "Point", "coordinates": [ -55.55378, -34.78174 ] } },
{ "type": "Feature", "properties": { "localidad": "BELLO HORIZONTE", "departamento": "CANELONES", "ribera": 0, "canadas": 0, "drenaje": 1, "presas": 0, "accesibilidad": 0, "costas": 1, "total_tipos_amenaza": 2 }, "geometry": { "type": "Point", "coordinates": [ -55.64536, -34.76544 ] } },
{ "type": "Feature", "properties": { "localidad": "BIARRITZ", "departamento": "CANELONES", "ribera": 0, "canadas": 0, "drenaje": 1, "presas": 0, "accesibilidad": 0, "costas": 0, "total_tipos_amenaza": 1 }, "geometry": { "type": "Point", "coordinates": [ -55.51613, -34.79192 ] } },
{ "type": "Feature", "properties": { "localidad": "BOLIVAR", "departamento": "CANELONES", "ribera": 0, "canadas": 0, "drenaje": 0, "presas": 1, "accesibilidad": 0, "costas": 0, "total_tipos_amenaza": 1 }, "geometry": { "type": "Point", "coordinates": [ -55.72879, -34.22273 ] } },
{ "type": "Feature", "properties": { "localidad": "EL BOSQUE", "departamento": "CANELONES", "ribera": 0, "canadas": 0, "drenaje": 1, "presas": 0, "accesibilidad": 0, "costas": 0, "total_tipos_amenaza": 1 }, "geometry": { "type": "Point", "coordinates": [ -55.97246, -34.83849 ] } },
{ "type": "Feature", "properties": { "localidad": "FORTIN DE SANTA ROSA", "departamento": "CANELONES", "ribera": 0, "canadas": 0, "drenaje": 0, "presas": 0, "accesibilidad": 0, "costas": 1, "total_tipos_amenaza": 1 }, "geometry": { "type": "Point", "coordinates": [ -55.80058, -34.77279 ] } },
{ "type": "Feature", "properties": { "localidad": "FRACC. PROGRESO", "departamento": "CANELONES", "ribera": 0, "canadas": 1, "drenaje": 0, "presas": 0, "accesibilidad": 0, "costas": 0, "total_tipos_amenaza": 1 }, "geometry": { "type": "Point", "coordinates": [ -56.24552, -34.64558 ] } },
{ "type": "Feature", "properties": { "localidad": "INSTITUTO ADVENTISTA", "departamento": "CANELONES", "ribera": 0, "canadas": 1, "drenaje": 0, "presas": 0, "accesibilidad": 0, "costas": 0, "total_tipos_amenaza": 1 }, "geometry": { "type": "Point", "coordinates": [ -56.25297, -34.62967 ] } },
{ "type": "Feature", "properties": { "localidad": "JAUREGUIBERRY", "departamento": "CANELONES", "ribera": 1, "canadas": 0, "drenaje": 1, "presas": 0, "accesibilidad": 0, "costas": 1, "total_tipos_amenaza": 3 }, "geometry": { "type": "Point", "coordinates": [ -55.42445, -34.78055 ] } },
{ "type": "Feature", "properties": { "localidad": "LA MONTAÑESA", "departamento": "CANELONES", "ribera": 0, "canadas": 0, "drenaje": 1, "presas": 0, "accesibilidad": 0, "costas": 0, "total_tipos_amenaza": 1 }, "geometry": { "type": "Point", "coordinates": [ -55.88057, -34.71982 ] } },
{ "type": "Feature", "properties": { "localidad": "LOMAS DE SOLYMAR", "departamento": "CANELONES", "ribera": 0, "canadas": 0, "drenaje": 1, "presas": 0, "accesibilidad": 0, "costas": 0, "total_tipos_amenaza": 1 }, "geometry": { "type": "Point", "coordinates": [ -55.94017, -34.8155 ] } },
{ "type": "Feature", "properties": { "localidad": "LOS TITANES", "departamento": "CANELONES", "ribera": 0, "canadas": 0, "drenaje": 1, "presas": 0, "accesibilidad": 0, "costas": 0, "total_tipos_amenaza": 1 }, "geometry": { "type": "Point", "coordinates": [ -55.56667, -34.77908 ] } },
{ "type": "Feature", "properties": { "localidad": "MARINDIA", "departamento": "CANELONES", "ribera": 0, "canadas": 0, "drenaje": 1, "presas": 0, "accesibilidad": 0, "costas": 0, "total_tipos_amenaza": 1 }, "geometry": { "type": "Point", "coordinates": [ -55.82162, -34.77304 ] } },
{ "type": "Feature", "properties": { "localidad": "NEPTUNIA", "departamento": "CANELONES", "ribera": 1, "canadas": 1, "drenaje": 1, "presas": 0, "accesibilidad": 0, "costas": 1, "total_tipos_amenaza": 4 }, "geometry": { "type": "Point", "coordinates": [ -55.88081, -34.77722 ] } },
{ "type": "Feature", "properties": { "localidad": "EL GALEON", "departamento": "CANELONES", "ribera": 0, "canadas": 0, "drenaje": 1, "presas": 0, "accesibilidad": 0, "costas": 1, "total_tipos_amenaza": 2 }, "geometry": { "type": "Point", "coordinates": [ -55.48515, -34.78883 ] } },
{ "type": "Feature", "properties": { "localidad": "SANTA ANA", "departamento": "CANELONES", "ribera": 0, "canadas": 0, "drenaje": 1, "presas": 0, "accesibilidad": 0, "costas": 1, "total_tipos_amenaza": 2 }, "geometry": { "type": "Point", "coordinates": [ -55.46701, -34.78703 ] } },
{ "type": "Feature", "properties": { "localidad": "SANTA LUCIA DEL ESTE", "departamento": "CANELONES", "ribera": 0, "canadas": 0, "drenaje": 1, "presas": 0, "accesibilidad": 0, "costas": 0, "total_tipos_amenaza": 1 }, "geometry": { "type": "Point", "coordinates": [ -55.53643, -34.78891 ] } },
{ "type": "Feature", "properties": { "localidad": "VILLA ARGENTINA", "departamento": "CANELONES", "ribera": 0, "canadas": 0, "drenaje": 1, "presas": 0, "accesibilidad": 0, "costas": 1, "total_tipos_amenaza": 2 }, "geometry": { "type": "Point", "coordinates": [ -55.77742, -34.7667 ] } },
{ "type": "Feature", "properties": { "localidad": "LA TUNA", "departamento": "CANELONES", "ribera": 0, "canadas": 0, "drenaje": 1, "presas": 0, "accesibilidad": 0, "costas": 1, "total_tipos_amenaza": 2 }, "geometry": { "type": "Point", "coordinates": [ -55.56185, -34.77984 ] } },
{ "type": "Feature", "properties": { "localidad": "GUAZU - VIRA", "departamento": "CANELONES", "ribera": 0, "canadas": 0, "drenaje": 1, "presas": 0, "accesibilidad": 0, "costas": 1, "total_tipos_amenaza": 2 }, "geometry": { "type": "Point", "coordinates": [ -55.61621, -34.76389 ] } },
{ "type": "Feature", "properties": { "localidad": "ALTOS DE LA TAHONA", "departamento": "CANELONES", "ribera": 0, "canadas": 1, "drenaje": 0, "presas": 0, "accesibilidad": 0, "costas": 0, "total_tipos_amenaza": 1 }, "geometry": { "type": "Point", "coordinates": [ -55.98136, -34.79265 ] } },
{ "type": "Feature", "properties": { "localidad": "MELO", "departamento": "CERRO LARGO", "ribera": 1, "canadas": 1, "drenaje": 1, "presas": 0, "accesibilidad": 1, "costas": 0, "total_tipos_amenaza": 4 }, "geometry": { "type": "Point", "coordinates": [ -54.16798, -32.36697 ] } },
{ "type": "Feature", "properties": { "localidad": "FRAILE MUERTO", "departamento": "CERRO LARGO", "ribera": 0, "canadas": 1, "drenaje": 1, "presas": 0, "accesibilidad": 1, "costas": 0, "total_tipos_amenaza": 3 }, "geometry": { "type": "Point", "coordinates": [ -54.52768, -32.51293 ] } },
{ "type": "Feature", "properties": { "localidad": "RIO BRANCO", "departamento": "CERRO LARGO", "ribera": 1, "canadas": 1, "drenaje": 1, "presas": 0, "accesibilidad": 0, "costas": 0, "total_tipos_amenaza": 3 }, "geometry": { "type": "Point", "coordinates": [ -53.38812, -32.59189 ] } },
{ "type": "Feature", "properties": { "localidad": "TUPAMBAE", "departamento": "CERRO LARGO", "ribera": 0, "canadas": 1, "drenaje": 1, "presas": 0, "accesibilidad": 0, "costas": 0, "total_tipos_amenaza": 2 }, "geometry": { "type": "Point", "coordinates": [ -54.76243, -32.83434 ] } },
{ "type": "Feature", "properties": { "localidad": "ISIDORO NOBLIA", "departamento": "CERRO LARGO", "ribera": 0, "canadas": 1, "drenaje": 1, "presas": 0, "accesibilidad": 0, "costas": 0, "total_tipos_amenaza": 2 }, "geometry": { "type": "Point", "coordinates": [ -54.12522, -31.9616 ] } },
{ "type": "Feature", "properties": { "localidad": "ACEGUA", "departamento": "CERRO LARGO", "ribera": 0, "canadas": 1, "drenaje": 0, "presas": 0, "accesibilidad": 0, "costas": 0, "total_tipos_amenaza": 1 }, "geometry": { "type": "Point", "coordinates": [ -54.16353, -31.87171 ] } },
{ "type": "Feature", "properties": { "localidad": "CENTURION", "departamento": "CERRO LARGO", "ribera": 0, "canadas": 0, "drenaje": 0, "presas": 0, "accesibilidad": 1, "costas": 0, "total_tipos_amenaza": 1 }, "geometry": { "type": "Point", "coordinates": [ -53.78798, -32.14482 ] } },
{ "type": "Feature", "properties": { "localidad": "PLACIDO ROSAS", "departamento": "CERRO LARGO", "ribera": 0, "canadas": 0, "drenaje": 0, "presas": 1, "accesibilidad": 0, "costas": 0, "total_tipos_amenaza": 1 }, "geometry": { "type": "Point", "coordinates": [ -53.71521, -32.75524 ] } },
{ "type": "Feature", "properties": { "localidad": "COLONIA DEL SACRAMENTO", "departamento": "COLONIA", "ribera": 1, "canadas": 0, "drenaje": 1, "presas": 0, "accesibilidad": 0, "costas": 1, "total_tipos_amenaza": 3 }, "geometry": { "type": "Point", "coordinates": [ -57.83892, -34.45055 ] } },
{ "type": "Feature", "properties": { "localidad": "CARMELO", "departamento": "COLONIA", "ribera": 1, "canadas": 1, "drenaje": 1, "presas": 0, "accesibilidad": 1, "costas": 1, "total_tipos_amenaza": 5 }, "geometry": { "type": "Point", "coordinates": [ -58.28244, -33.99634 ] } },
{ "type": "Feature", "properties": { "localidad": "JUAN LACAZE", "departamento": "COLONIA", "ribera": 1, "canadas": 1, "drenaje": 1, "presas": 1, "accesibilidad": 1, "costas": 1, "total_tipos_amenaza": 6 }, "geometry": { "type": "Point", "coordinates": [ -57.44468, -34.42352 ] } },
{ "type": "Feature", "properties": { "localidad": "NUEVA HELVECIA", "departamento": "COLONIA", "ribera": 1, "canadas": 1, "drenaje": 1, "presas": 0, "accesibilidad": 1, "costas": 0, "total_tipos_amenaza": 4 }, "geometry": { "type": "Point", "coordinates": [ -57.23723, -34.29642 ] } },
{ "type": "Feature", "properties": { "localidad": "ROSARIO", "departamento": "COLONIA", "ribera": 1, "canadas": 1, "drenaje": 1, "presas": 0, "accesibilidad": 1, "costas": 0, "total_tipos_amenaza": 4 }, "geometry": { "type": "Point", "coordinates": [ -57.35073, -34.31856 ] } },
{ "type": "Feature", "properties": { "localidad": "NUEVA PALMIRA", "departamento": "COLONIA", "ribera": 1, "canadas": 1, "drenaje": 1, "presas": 0, "accesibilidad": 0, "costas": 1, "total_tipos_amenaza": 4 }, "geometry": { "type": "Point", "coordinates": [ -58.40345, -33.88271 ] } },
{ "type": "Feature", "properties": { "localidad": "OMBUES DE LAVALLE", "departamento": "COLONIA", "ribera": 0, "canadas": 1, "drenaje": 1, "presas": 1, "accesibilidad": 0, "costas": 0, "total_tipos_amenaza": 3 }, "geometry": { "type": "Point", "coordinates": [ -57.80879, -33.93687 ] } },
{ "type": "Feature", "properties": { "localidad": "TARARIRAS", "departamento": "COLONIA", "ribera": 0, "canadas": 1, "drenaje": 1, "presas": 0, "accesibilidad": 0, "costas": 0, "total_tipos_amenaza": 2 }, "geometry": { "type": "Point", "coordinates": [ -57.61574, -34.26709 ] } },
{ "type": "Feature", "properties": { "localidad": "COLONIA VALDENSE", "departamento": "COLONIA", "ribera": 0, "canadas": 1, "drenaje": 0, "presas": 0, "accesibilidad": 0, "costas": 0, "total_tipos_amenaza": 1 }, "geometry": { "type": "Point", "coordinates": [ -57.26713, -34.34394 ] } },
{ "type": "Feature", "properties": { "localidad": "FLORENCIO SANCHEZ", "departamento": "COLONIA", "ribera": 0, "canadas": 1, "drenaje": 1, "presas": 0, "accesibilidad": 0, "costas": 0, "total_tipos_amenaza": 2 }, "geometry": { "type": "Point", "coordinates": [ -57.36843, -33.88141 ] } },
{ "type": "Feature", "properties": { "localidad": "CONCHILLAS", "departamento": "COLONIA", "ribera": 0, "canadas": 1, "drenaje": 0, "presas": 0, "accesibilidad": 0, "costas": 0, "total_tipos_amenaza": 1 }, "geometry": { "type": "Point", "coordinates": [ -58.03209, -34.16232 ] } },
{ "type": "Feature", "properties": { "localidad": "AGRACIADA", "departamento": "COLONIA", "ribera": 0, "canadas": 1, "drenaje": 0, "presas": 0, "accesibilidad": 0, "costas": 0, "total_tipos_amenaza": 1 }, "geometry": { "type": "Point", "coordinates": [ -58.26625, -33.81063 ] } },
{ "type": "Feature", "properties": { "localidad": "CUFRE", "departamento": "COLONIA", "ribera": 0, "canadas": 0, "drenaje": 1, "presas": 0, "accesibilidad": 0, "costas": 0, "total_tipos_amenaza": 1 }, "geometry": { "type": "Point", "coordinates": [ -57.10714, -34.19812 ] } },
{ "type": "Feature", "properties": { "localidad": "ESTACION ESTANZUELA", "departamento": "COLONIA", "ribera": 0, "canadas": 1, "drenaje": 0, "presas": 0, "accesibilidad": 0, "costas": 0, "total_tipos_amenaza": 1 }, "geometry": { "type": "Point", "coordinates": [ -57.72502, -34.32858 ] } },
{ "type": "Feature", "properties": { "localidad": "MIGUELETE", "departamento": "COLONIA", "ribera": 0, "canadas": 1, "drenaje": 0, "presas": 0, "accesibilidad": 0, "costas": 0, "total_tipos_amenaza": 1 }, "geometry": { "type": "Point", "coordinates": [ -57.6474, -34.00493 ] } },
{ "type": "Feature", "properties": { "localidad": "ARTILLEROS", "departamento": "COLONIA", "ribera": 1, "canadas": 0, "drenaje": 0, "presas": 0, "accesibilidad": 1, "costas": 1, "total_tipos_amenaza": 3 }, "geometry": { "type": "Point", "coordinates": [ -57.5742, -34.42548 ] } },
{ "type": "Feature", "properties": { "localidad": "BARKER", "departamento": "COLONIA", "ribera": 0, "canadas": 0, "drenaje": 1, "presas": 0, "accesibilidad": 0, "costas": 0, "total_tipos_amenaza": 1 }, "geometry": { "type": "Point", "coordinates": [ -57.46049, -34.26053 ] } },
{ "type": "Feature", "properties": { "localidad": "BRISAS DEL PLATA", "departamento": "COLONIA", "ribera": 0, "canadas": 0, "drenaje": 0, "presas": 0, "accesibilidad": 0, "costas": 1, "total_tipos_amenaza": 1 }, "geometry": { "type": "Point", "coordinates": [ -57.17237, -34.44316 ] } },
{ "type": "Feature", "properties": { "localidad": "LOS PINOS", "departamento": "COLONIA", "ribera": 0, "canadas": 0, "drenaje": 0, "presas": 0, "accesibilidad": 0, "costas": 1, "total_tipos_amenaza": 1 }, "geometry": { "type": "Point", "coordinates": [ -57.24228, -34.43362 ] } },
{ "type": "Feature", "properties": { "localidad": "PLAYA AZUL", "departamento": "COLONIA", "ribera": 0, "canadas": 0, "drenaje": 0, "presas": 0, "accesibilidad": 0, "costas": 1, "total_tipos_amenaza": 1 }, "geometry": { "type": "Point", "coordinates": [ -57.26399, -34.43356 ] } },
{ "type": "Feature", "properties": { "localidad": "PLAYA BRITOPOLIS", "departamento": "COLONIA", "ribera": 0, "canadas": 0, "drenaje": 0, "presas": 0, "accesibilidad": 0, "costas": 1, "total_tipos_amenaza": 1 }, "geometry": { "type": "Point", "coordinates": [ -57.26829, -34.43188 ] } },
{ "type": "Feature", "properties": { "localidad": "PLAYA PARANT", "departamento": "COLONIA", "ribera": 0, "canadas": 0, "drenaje": 0, "presas": 0, "accesibilidad": 0, "costas": 1, "total_tipos_amenaza": 1 }, "geometry": { "type": "Point", "coordinates": [ -57.25834, -34.4333 ] } },
{ "type": "Feature", "properties": { "localidad": "PUERTO INGLES", "departamento": "COLONIA", "ribera": 1, "canadas": 0, "drenaje": 0, "presas": 0, "accesibilidad": 0, "costas": 1, "total_tipos_amenaza": 2 }, "geometry": { "type": "Point", "coordinates": [ -58.06852, -34.20272 ] } },
{ "type": "Feature", "properties": { "localidad": "SANTA ANA", "departamento": "COLONIA", "ribera": 1, "canadas": 0, "drenaje": 0, "presas": 0, "accesibilidad": 0, "costas": 1, "total_tipos_amenaza": 2 }, "geometry": { "type": "Point", "coordinates": [ -57.59182, -34.42001 ] } },
{ "type": "Feature", "properties": { "localidad": "SANTA REGINA", "departamento": "COLONIA", "ribera": 1, "canadas": 0, "drenaje": 0, "presas": 0, "accesibilidad": 0, "costas": 1, "total_tipos_amenaza": 2 }, "geometry": { "type": "Point", "coordinates": [ -57.19603, -34.43815 ] } },
{ "type": "Feature", "properties": { "localidad": "EL FARO", "departamento": "COLONIA", "ribera": 0, "canadas": 0, "drenaje": 0, "presas": 0, "accesibilidad": 0, "costas": 1, "total_tipos_amenaza": 1 }, "geometry": { "type": "Point", "coordinates": [ -58.35498, -33.95423 ] } },
{ "type": "Feature", "properties": { "localidad": "DURAZNO", "departamento": "DURAZNO", "ribera": 1, "canadas": 1, "drenaje": 1, "presas": 0, "accesibilidad": 1, "costas": 0, "total_tipos_amenaza": 4 }, "geometry": { "type": "Point", "coordinates": [ -56.52268, -33.3825 ] } },
{ "type": "Feature", "properties": { "localidad": "SARANDI DEL YI", "departamento": "DURAZNO", "ribera": 1, "canadas": 1, "drenaje": 1, "presas": 0, "accesibilidad": 1, "costas": 0, "total_tipos_amenaza": 4 }, "geometry": { "type": "Point", "coordinates": [ -55.62692, -33.33549 ] } },
{ "type": "Feature", "properties": { "localidad": "CARMEN", "departamento": "DURAZNO", "ribera": 0, "canadas": 1, "drenaje": 1, "presas": 0, "accesibilidad": 0, "costas": 0, "total_tipos_amenaza": 2 }, "geometry": { "type": "Point", "coordinates": [ -56.00352, -33.23733 ] } },
{ "type": "Feature", "properties": { "localidad": "BLANQUILLO", "departamento": "DURAZNO", "ribera": 0, "canadas": 1, "drenaje": 1, "presas": 0, "accesibilidad": 0, "costas": 0, "total_tipos_amenaza": 2 }, "geometry": { "type": "Point", "coordinates": [ -55.61676, -32.88715 ] } },
{ "type": "Feature", "properties": { "localidad": "LA PALOMA", "departamento": "DURAZNO", "ribera": 0, "canadas": 1, "drenaje": 1, "presas": 0, "accesibilidad": 0, "costas": 0, "total_tipos_amenaza": 2 }, "geometry": { "type": "Point", "coordinates": [ -55.58202, -32.72699 ] } },
{ "type": "Feature", "properties": { "localidad": "CARLOS REYLES", "departamento": "DURAZNO", "ribera": 0, "canadas": 1, "drenaje": 1, "presas": 0, "accesibilidad": 0, "costas": 0, "total_tipos_amenaza": 2 }, "geometry": { "type": "Point", "coordinates": [ -56.47922, -33.05657 ] } },
{ "type": "Feature", "properties": { "localidad": "CENTENARIO", "departamento": "DURAZNO", "ribera": 1, "canadas": 0, "drenaje": 1, "presas": 1, "accesibilidad": 0, "costas": 0, "total_tipos_amenaza": 3 }, "geometry": { "type": "Point", "coordinates": [ -56.4985, -32.82798 ] } },
{ "type": "Feature", "properties": { "localidad": "FELICIANO", "departamento": "DURAZNO", "ribera": 0, "canadas": 0, "drenaje": 0, "presas": 0, "accesibilidad": 1, "costas": 0, "total_tipos_amenaza": 1 }, "geometry": { "type": "Point", "coordinates": [ -56.80807, -33.186 ] } },
{ "type": "Feature", "properties": { "localidad": "OMBUES DE ORIBE", "departamento": "DURAZNO", "ribera": 0, "canadas": 0, "drenaje": 0, "presas": 0, "accesibilidad": 1, "costas": 0, "total_tipos_amenaza": 1 }, "geometry": { "type": "Point", "coordinates": [ -56.35578, -33.29607 ] } },
{ "type": "Feature", "properties": { "localidad": "SAN JORGE", "departamento": "DURAZNO", "ribera": 0, "canadas": 1, "drenaje": 0, "presas": 0, "accesibilidad": 0, "costas": 0, "total_tipos_amenaza": 1 }, "geometry": { "type": "Point", "coordinates": [ -55.89537, -32.84232 ] } },
{ "type": "Feature", "properties": { "localidad": "ISMAEL CORTINAS", "departamento": "FLORES", "ribera": 0, "canadas": 1, "drenaje": 0, "presas": 0, "accesibilidad": 0, "costas": 0, "total_tipos_amenaza": 1 }, "geometry": { "type": "Point", "coordinates": [ -57.09024, -33.96216 ] } },
{ "type": "Feature", "properties": { "localidad": "ANDRESITO", "departamento": "FLORES", "ribera": 0, "canadas": 0, "drenaje": 0, "presas": 1, "accesibilidad": 0, "costas": 0, "total_tipos_amenaza": 1 }, "geometry": { "type": "Point", "coordinates": [ -57.13055, -33.16617 ] } },
{ "type": "Feature", "properties": { "localidad": "FLORIDA", "departamento": "FLORIDA", "ribera": 1, "canadas": 1, "drenaje": 1, "presas": 0, "accesibilidad": 1, "costas": 0, "total_tipos_amenaza": 4 }, "geometry": { "type": "Point", "coordinates": [ -56.22188, -34.103 ] } },
{ "type": "Feature", "properties": { "localidad": "SARANDI GRANDE", "departamento": "FLORIDA", "ribera": 0, "canadas": 1, "drenaje": 1, "presas": 0, "accesibilidad": 0, "costas": 0, "total_tipos_amenaza": 2 }, "geometry": { "type": "Point", "coordinates": [ -56.32842, -33.72441 ] } },
{ "type": "Feature", "properties": { "localidad": "CARDAL", "departamento": "FLORIDA", "ribera": 0, "canadas": 1, "drenaje": 0, "presas": 0, "accesibilidad": 1, "costas": 0, "total_tipos_amenaza": 2 }, "geometry": { "type": "Point", "coordinates": [ -56.39444, -34.29232 ] } },
{ "type": "Feature", "properties": { "localidad": "FRAY MARCOS", "departamento": "FLORIDA", "ribera": 0, "canadas": 1, "drenaje": 0, "presas": 1, "accesibilidad": 0, "costas": 0, "total_tipos_amenaza": 2 }, "geometry": { "type": "Point", "coordinates": [ -55.73732, -34.19792 ] } },
{ "type": "Feature", "properties": { "localidad": "25 DE MAYO", "departamento": "FLORIDA", "ribera": 0, "canadas": 1, "drenaje": 0, "presas": 0, "accesibilidad": 1, "costas": 0, "total_tipos_amenaza": 2 }, "geometry": { "type": "Point", "coordinates": [ -56.33702, -34.19483 ] } },
{ "type": "Feature", "properties": { "localidad": "ALEJANDRO GALLINAL", "departamento": "FLORIDA", "ribera": 0, "canadas": 1, "drenaje": 0, "presas": 0, "accesibilidad": 0, "costas": 0, "total_tipos_amenaza": 1 }, "geometry": { "type": "Point", "coordinates": [ -55.54328, -33.86262 ] } },
{ "type": "Feature", "properties": { "localidad": "CAPILLA DEL SAUCE", "departamento": "FLORIDA", "ribera": 0, "canadas": 1, "drenaje": 0, "presas": 0, "accesibilidad": 0, "costas": 0, "total_tipos_amenaza": 1 }, "geometry": { "type": "Point", "coordinates": [ -55.63129, -33.46709 ] } },
{ "type": "Feature", "properties": { "localidad": "LA CRUZ", "departamento": "FLORIDA", "ribera": 0, "canadas": 1, "drenaje": 0, "presas": 0, "accesibilidad": 0, "costas": 0, "total_tipos_amenaza": 1 }, "geometry": { "type": "Point", "coordinates": [ -56.23694, -33.93084 ] } },
{ "type": "Feature", "properties": { "localidad": "NICO PEREZ", "departamento": "FLORIDA", "ribera": 0, "canadas": 1, "drenaje": 0, "presas": 0, "accesibilidad": 0, "costas": 0, "total_tipos_amenaza": 1 }, "geometry": { "type": "Point", "coordinates": [ -55.15172, -33.47444 ] } },
{ "type": "Feature", "properties": { "localidad": "CHAMIZO", "departamento": "FLORIDA", "ribera": 0, "canadas": 1, "drenaje": 0, "presas": 0, "accesibilidad": 0, "costas": 0, "total_tipos_amenaza": 1 }, "geometry": { "type": "Point", "coordinates": [ -55.91555, -34.24304 ] } },
{ "type": "Feature", "properties": { "localidad": "MENDOZA", "departamento": "FLORIDA", "ribera": 0, "canadas": 1, "drenaje": 0, "presas": 0, "accesibilidad": 0, "costas": 0, "total_tipos_amenaza": 1 }, "geometry": { "type": "Point", "coordinates": [ -56.21433, -34.28126 ] } },
{ "type": "Feature", "properties": { "localidad": "MENDOZA CHICO", "departamento": "FLORIDA", "ribera": 0, "canadas": 1, "drenaje": 0, "presas": 0, "accesibilidad": 0, "costas": 0, "total_tipos_amenaza": 1 }, "geometry": { "type": "Point", "coordinates": [ -56.21776, -34.24099 ] } },
{ "type": "Feature", "properties": { "localidad": "INDEPENDENCIA", "departamento": "FLORIDA", "ribera": 0, "canadas": 0, "drenaje": 0, "presas": 1, "accesibilidad": 0, "costas": 0, "total_tipos_amenaza": 1 }, "geometry": { "type": "Point", "coordinates": [ -56.39828, -34.35413 ] } },
{ "type": "Feature", "properties": { "localidad": "POLANCO DEL YI", "departamento": "FLORIDA", "ribera": 0, "canadas": 0, "drenaje": 0, "presas": 0, "accesibilidad": 1, "costas": 0, "total_tipos_amenaza": 1 }, "geometry": { "type": "Point", "coordinates": [ -56.15694, -33.48721 ] } },
{ "type": "Feature", "properties": { "localidad": "MINAS", "departamento": "LAVALLEJA", "ribera": 0, "canadas": 1, "drenaje": 1, "presas": 0, "accesibilidad": 1, "costas": 0, "total_tipos_amenaza": 3 }, "geometry": { "type": "Point", "coordinates": [ -55.24402, -34.37662 ] } },
{ "type": "Feature", "properties": { "localidad": "JOSE PEDRO VARELA", "departamento": "LAVALLEJA", "ribera": 1, "canadas": 1, "drenaje": 1, "presas": 0, "accesibilidad": 1, "costas": 0, "total_tipos_amenaza": 4 }, "geometry": { "type": "Point", "coordinates": [ -54.53609, -33.45446 ] } },
{ "type": "Feature", "properties": { "localidad": "MARISCALA", "departamento": "LAVALLEJA", "ribera": 0, "canadas": 1, "drenaje": 0, "presas": 0, "accesibilidad": 0, "costas": 0, "total_tipos_amenaza": 1 }, "geometry": { "type": "Point", "coordinates": [ -54.77222, -34.0431 ] } },
{ "type": "Feature", "properties": { "localidad": "SOLIS DE MATAOJO", "departamento": "LAVALLEJA", "ribera": 0, "canadas": 1, "drenaje": 1, "presas": 0, "accesibilidad": 1, "costas": 0, "total_tipos_amenaza": 3 }, "geometry": { "type": "Point", "coordinates": [ -55.45886, -34.5976 ] } },
{ "type": "Feature", "properties": { "localidad": "PIRARAJA", "departamento": "LAVALLEJA", "ribera": 0, "canadas": 1, "drenaje": 0, "presas": 1, "accesibilidad": 0, "costas": 0, "total_tipos_amenaza": 2 }, "geometry": { "type": "Point", "coordinates": [ -54.76271, -33.73898 ] } },
{ "type": "Feature", "properties": { "localidad": "ZAPICAN", "departamento": "LAVALLEJA", "ribera": 0, "canadas": 1, "drenaje": 0, "presas": 0, "accesibilidad": 0, "costas": 0, "total_tipos_amenaza": 1 }, "geometry": { "type": "Point", "coordinates": [ -54.94162, -33.52287 ] } },
{ "type": "Feature", "properties": { "localidad": "19 DE JUNIO", "departamento": "LAVALLEJA", "ribera": 0, "canadas": 0, "drenaje": 0, "presas": 1, "accesibilidad": 1, "costas": 0, "total_tipos_amenaza": 2 }, "geometry": { "type": "Point", "coordinates": [ -54.33132, -33.61159 ] } },
{ "type": "Feature", "properties": { "localidad": "ESTACION SOLIS", "departamento": "LAVALLEJA", "ribera": 0, "canadas": 0, "drenaje": 0, "presas": 0, "accesibilidad": 1, "costas": 0, "total_tipos_amenaza": 1 }, "geometry": { "type": "Point", "coordinates": [ -55.44954, -34.36951 ] } },
{ "type": "Feature", "properties": { "localidad": "POLANCO NORTE", "departamento": "LAVALLEJA", "ribera": 0, "canadas": 0, "drenaje": 0, "presas": 0, "accesibilidad": 1, "costas": 0, "total_tipos_amenaza": 1 }, "geometry": { "type": "Point", "coordinates": [ -55.12211, -33.87475 ] } },
{ "type": "Feature", "properties": { "localidad": "SAN FRANCISCO DE LAS SIERRAS", "departamento": "LAVALLEJA", "ribera": 0, "canadas": 0, "drenaje": 0, "presas": 0, "accesibilidad": 1, "costas": 0, "total_tipos_amenaza": 1 }, "geometry": { "type": "Point", "coordinates": [ -55.19667, -34.41509 ] } },
{ "type": "Feature", "properties": { "localidad": "MALDONADO", "departamento": "MALDONADO", "ribera": 0, "canadas": 1, "drenaje": 1, "presas": 0, "accesibilidad": 1, "costas": 0, "total_tipos_amenaza": 3 }, "geometry": { "type": "Point", "coordinates": [ -54.94737, -34.89722 ] } },
{ "type": "Feature", "properties": { "localidad": "SAN CARLOS", "departamento": "MALDONADO", "ribera": 1, "canadas": 1, "drenaje": 1, "presas": 0, "accesibilidad": 1, "costas": 0, "total_tipos_amenaza": 4 }, "geometry": { "type": "Point", "coordinates": [ -54.91938, -34.78926 ] } },
{ "type": "Feature", "properties": { "localidad": "AIGUA", "departamento": "MALDONADO", "ribera": 0, "canadas": 1, "drenaje": 0, "presas": 0, "accesibilidad": 0, "costas": 0, "total_tipos_amenaza": 1 }, "geometry": { "type": "Point", "coordinates": [ -54.76344, -34.20569 ] } },
{ "type": "Feature", "properties": { "localidad": "PAN DE AZUCAR", "departamento": "MALDONADO", "ribera": 1, "canadas": 1, "drenaje": 1, "presas": 0, "accesibilidad": 0, "costas": 0, "total_tipos_amenaza": 3 }, "geometry": { "type": "Point", "coordinates": [ -55.22836, -34.77285 ] } },
{ "type": "Feature", "properties": { "localidad": "PIRIAPOLIS", "departamento": "MALDONADO", "ribera": 0, "canadas": 1, "drenaje": 1, "presas": 0, "accesibilidad": 0, "costas": 1, "total_tipos_amenaza": 3 }, "geometry": { "type": "Point", "coordinates": [ -55.27757, -34.8649 ] } },
{ "type": "Feature", "properties": { "localidad": "PUNTA DEL ESTE", "departamento": "MALDONADO", "ribera": 0, "canadas": 0, "drenaje": 1, "presas": 0, "accesibilidad": 0, "costas": 0, "total_tipos_amenaza": 1 }, "geometry": { "type": "Point", "coordinates": [ -54.9316, -34.9431 ] } },
{ "type": "Feature", "properties": { "localidad": "SOLIS", "departamento": "MALDONADO", "ribera": 0, "canadas": 0, "drenaje": 0, "presas": 0, "accesibilidad": 0, "costas": 1, "total_tipos_amenaza": 1 }, "geometry": { "type": "Point", "coordinates": [ -55.38588, -34.78981 ] } },
{ "type": "Feature", "properties": { "localidad": "PINARES - LAS DELICIAS", "departamento": "MALDONADO", "ribera": 0, "canadas": 0, "drenaje": 1, "presas": 0, "accesibilidad": 0, "costas": 1, "total_tipos_amenaza": 2 }, "geometry": { "type": "Point", "coordinates": [ -54.98075, -34.91227 ] } },
{ "type": "Feature", "properties": { "localidad": "CHIHUAHUA", "departamento": "MALDONADO", "ribera": 0, "canadas": 0, "drenaje": 0, "presas": 0, "accesibilidad": 0, "costas": 1, "total_tipos_amenaza": 1 }, "geometry": { "type": "Point", "coordinates": [ -55.09378, -34.87354 ] } },
{ "type": "Feature", "properties": { "localidad": "SAN RAFAEL - EL PLACER", "departamento": "MALDONADO", "ribera": 0, "canadas": 0, "drenaje": 1, "presas": 0, "accesibilidad": 0, "costas": 0, "total_tipos_amenaza": 1 }, "geometry": { "type": "Point", "coordinates": [ -54.89458, -34.92205 ] } },
{ "type": "Feature", "properties": { "localidad": "BARRIO HIPODROMO", "departamento": "MALDONADO", "ribera": 0, "canadas": 1, "drenaje": 0, "presas": 0, "accesibilidad": 0, "costas": 0, "total_tipos_amenaza": 1 }, "geometry": { "type": "Point", "coordinates": [ -54.94286, -34.8622 ] } },
{ "type": "Feature", "properties": { "localidad": "BELLA VISTA", "departamento": "MALDONADO", "ribera": 0, "canadas": 0, "drenaje": 0, "presas": 0, "accesibilidad": 0, "costas": 1, "total_tipos_amenaza": 1 }, "geometry": { "type": "Point", "coordinates": [ -55.35788, -34.80354 ] } },
{ "type": "Feature", "properties": { "localidad": "EL CHORRO", "departamento": "MALDONADO", "ribera": 0, "canadas": 0, "drenaje": 0, "presas": 0, "accesibilidad": 0, "costas": 1, "total_tipos_amenaza": 1 }, "geometry": { "type": "Point", "coordinates": [ -54.81114, -34.89829 ] } },
{ "type": "Feature", "properties": { "localidad": "FARO JOSE IGNACIO", "departamento": "MALDONADO", "ribera": 0, "canadas": 0, "drenaje": 0, "presas": 0, "accesibilidad": 0, "costas": 1, "total_tipos_amenaza": 1 }, "geometry": { "type": "Point", "coordinates": [ -54.6527, -34.83744 ] } },
{ "type": "Feature", "properties": { "localidad": "GREGORIO AZNAREZ", "departamento": "MALDONADO", "ribera": 0, "canadas": 1, "drenaje": 0, "presas": 0, "accesibilidad": 0, "costas": 0, "total_tipos_amenaza": 1 }, "geometry": { "type": "Point", "coordinates": [ -55.4012, -34.74634 ] } },
{ "type": "Feature", "properties": { "localidad": "LA CAPUERA", "departamento": "MALDONADO", "ribera": 0, "canadas": 1, "drenaje": 1, "presas": 0, "accesibilidad": 0, "costas": 0, "total_tipos_amenaza": 2 }, "geometry": { "type": "Point", "coordinates": [ -55.10647, -34.8554 ] } },
{ "type": "Feature", "properties": { "localidad": "MANANTIALES", "departamento": "MALDONADO", "ribera": 0, "canadas": 0, "drenaje": 0, "presas": 0, "accesibilidad": 0, "costas": 1, "total_tipos_amenaza": 1 }, "geometry": { "type": "Point", "coordinates": [ -54.82648, -34.90477 ] } },
{ "type": "Feature", "properties": { "localidad": "OCEAN PARK", "departamento": "MALDONADO", "ribera": 1, "canadas": 0, "drenaje": 0, "presas": 0, "accesibilidad": 0, "costas": 1, "total_tipos_amenaza": 2 }, "geometry": { "type": "Point", "coordinates": [ -55.10476, -34.87094 ] } },
{ "type": "Feature", "properties": { "localidad": "PLAYA GRANDE", "departamento": "MALDONADO", "ribera": 1, "canadas": 1, "drenaje": 0, "presas": 0, "accesibilidad": 0, "costas": 1, "total_tipos_amenaza": 3 }, "geometry": { "type": "Point", "coordinates": [ -55.29622, -34.84361 ] } },
{ "type": "Feature", "properties": { "localidad": "PLAYA HERMOSA", "departamento": "MALDONADO", "ribera": 0, "canadas": 0, "drenaje": 0, "presas": 0, "accesibilidad": 0, "costas": 1, "total_tipos_amenaza": 1 }, "geometry": { "type": "Point", "coordinates": [ -55.30154, -34.82793 ] } },
{ "type": "Feature", "properties": { "localidad": "PLAYA VERDE", "departamento": "MALDONADO", "ribera": 1, "canadas": 0, "drenaje": 0, "presas": 0, "accesibilidad": 0, "costas": 1, "total_tipos_amenaza": 2 }, "geometry": { "type": "Point", "coordinates": [ -55.31813, -34.82439 ] } },
{ "type": "Feature", "properties": { "localidad": "PUNTA BALLENA", "departamento": "MALDONADO", "ribera": 1, "canadas": 1, "drenaje": 0, "presas": 0, "accesibilidad": 0, "costas": 1, "total_tipos_amenaza": 3 }, "geometry": { "type": "Point", "coordinates": [ -55.04471, -34.88516 ] } },
{ "type": "Feature", "properties": { "localidad": "PUNTA COLORADA", "departamento": "MALDONADO", "ribera": 0, "canadas": 0, "drenaje": 0, "presas": 0, "accesibilidad": 0, "costas": 1, "total_tipos_amenaza": 1 }, "geometry": { "type": "Point", "coordinates": [ -55.25848, -34.89701 ] } },
{ "type": "Feature", "properties": { "localidad": "PUNTA NEGRA", "departamento": "MALDONADO", "ribera": 0, "canadas": 0, "drenaje": 0, "presas": 0, "accesibilidad": 0, "costas": 1, "total_tipos_amenaza": 1 }, "geometry": { "type": "Point", "coordinates": [ -55.22266, -34.8902 ] } },
{ "type": "Feature", "properties": { "localidad": "SAN VICENTE", "departamento": "MALDONADO", "ribera": 0, "canadas": 0, "drenaje": 1, "presas": 0, "accesibilidad": 0, "costas": 1, "total_tipos_amenaza": 2 }, "geometry": { "type": "Point", "coordinates": [ -54.7693, -34.87961 ] } },
{ "type": "Feature", "properties": { "localidad": "BALNEARIO BUENOS AIRES", "departamento": "MALDONADO", "ribera": 0, "canadas": 1, "drenaje": 1, "presas": 0, "accesibilidad": 0, "costas": 1, "total_tipos_amenaza": 3 }, "geometry": { "type": "Point", "coordinates": [ -54.79413, -34.88929 ] } },
{ "type": "Feature", "properties": { "localidad": "SANTA MONICA", "departamento": "MALDONADO", "ribera": 0, "canadas": 0, "drenaje": 1, "presas": 0, "accesibilidad": 0, "costas": 1, "total_tipos_amenaza": 2 }, "geometry": { "type": "Point", "coordinates": [ -54.71461, -34.85448 ] } },
{ "type": "Feature", "properties": { "localidad": "EDEN ROCK", "departamento": "MALDONADO", "ribera": 0, "canadas": 0, "drenaje": 1, "presas": 0, "accesibilidad": 0, "costas": 1, "total_tipos_amenaza": 2 }, "geometry": { "type": "Point", "coordinates": [ -54.75407, -34.86467 ] } },
{ "type": "Feature", "properties": { "localidad": "LAGUNA BLANCA", "departamento": "MALDONADO", "ribera": 0, "canadas": 0, "drenaje": 0, "presas": 0, "accesibilidad": 0, "costas": 1, "total_tipos_amenaza": 1 }, "geometry": { "type": "Point", "coordinates": [ -54.83957, -34.90557 ] } },
{ "type": "Feature", "properties": { "localidad": "PAYSANDU", "departamento": "PAYSANDU", "ribera": 1, "canadas": 1, "drenaje": 1, "presas": 1, "accesibilidad": 0, "costas": 0, "total_tipos_amenaza": 4 }, "geometry": { "type": "Point", "coordinates": [ -58.07902, -32.31877 ] } },
{ "type": "Feature", "properties": { "localidad": "GUICHON", "departamento": "PAYSANDU", "ribera": 0, "canadas": 1, "drenaje": 1, "presas": 0, "accesibilidad": 0, "costas": 0, "total_tipos_amenaza": 2 }, "geometry": { "type": "Point", "coordinates": [ -57.1986, -32.35863 ] } },
{ "type": "Feature", "properties": { "localidad": "QUEBRACHO", "departamento": "PAYSANDU", "ribera": 0, "canadas": 1, "drenaje": 0, "presas": 0, "accesibilidad": 0, "costas": 0, "total_tipos_amenaza": 1 }, "geometry": { "type": "Point", "coordinates": [ -57.90207, -31.93588 ] } },
{ "type": "Feature", "properties": { "localidad": "LORENZO GEYRES", "departamento": "PAYSANDU", "ribera": 0, "canadas": 1, "drenaje": 1, "presas": 0, "accesibilidad": 0, "costas": 0, "total_tipos_amenaza": 2 }, "geometry": { "type": "Point", "coordinates": [ -57.91887, -32.07967 ] } },
{ "type": "Feature", "properties": { "localidad": "MERINOS", "departamento": "PAYSANDU", "ribera": 0, "canadas": 1, "drenaje": 0, "presas": 0, "accesibilidad": 0, "costas": 0, "total_tipos_amenaza": 1 }, "geometry": { "type": "Point", "coordinates": [ -56.90787, -32.38375 ] } },
{ "type": "Feature", "properties": { "localidad": "PORVENIR", "departamento": "PAYSANDU", "ribera": 0, "canadas": 1, "drenaje": 0, "presas": 0, "accesibilidad": 0, "costas": 0, "total_tipos_amenaza": 1 }, "geometry": { "type": "Point", "coordinates": [ -57.96969, -32.39377 ] } },
{ "type": "Feature", "properties": { "localidad": "BEISSO", "departamento": "PAYSANDU", "ribera": 0, "canadas": 1, "drenaje": 0, "presas": 0, "accesibilidad": 0, "costas": 0, "total_tipos_amenaza": 1 }, "geometry": { "type": "Point", "coordinates": [ -57.05339, -32.31661 ] } },
{ "type": "Feature", "properties": { "localidad": "CASABLANCA", "departamento": "PAYSANDU", "ribera": 0, "canadas": 0, "drenaje": 0, "presas": 1, "accesibilidad": 0, "costas": 0, "total_tipos_amenaza": 1 }, "geometry": { "type": "Point", "coordinates": [ -58.15798, -32.39989 ] } },
{ "type": "Feature", "properties": { "localidad": "PIEDRAS COLORADAS", "departamento": "PAYSANDU", "ribera": 0, "canadas": 1, "drenaje": 0, "presas": 0, "accesibilidad": 0, "costas": 0, "total_tipos_amenaza": 1 }, "geometry": { "type": "Point", "coordinates": [ -57.60833, -32.37331 ] } },
{ "type": "Feature", "properties": { "localidad": "CHAPICUY", "departamento": "PAYSANDU", "ribera": 0, "canadas": 0, "drenaje": 1, "presas": 0, "accesibilidad": 0, "costas": 0, "total_tipos_amenaza": 1 }, "geometry": { "type": "Point", "coordinates": [ -57.88858, -31.66133 ] } },
{ "type": "Feature", "properties": { "localidad": "CHACRAS DE PAYSANDU", "departamento": "PAYSANDU", "ribera": 1, "canadas": 0, "drenaje": 0, "presas": 0, "accesibilidad": 0, "costas": 0, "total_tipos_amenaza": 1 }, "geometry": { "type": "Point", "coordinates": [ -57.99182, -32.3492 ] } },
{ "type": "Feature", "properties": { "localidad": "FRAY BENTOS", "departamento": "RIO NEGRO", "ribera": 1, "canadas": 1, "drenaje": 1, "presas": 0, "accesibilidad": 0, "costas": 0, "total_tipos_amenaza": 3 }, "geometry": { "type": "Point", "coordinates": [ -58.29895, -33.12673 ] } },
{ "type": "Feature", "properties": { "localidad": "YOUNG", "departamento": "RIO NEGRO", "ribera": 0, "canadas": 1, "drenaje": 1, "presas": 0, "accesibilidad": 0, "costas": 0, "total_tipos_amenaza": 2 }, "geometry": { "type": "Point", "coordinates": [ -57.64088, -32.70362 ] } },
{ "type": "Feature", "properties": { "localidad": "NUEVO BERLIN", "departamento": "RIO NEGRO", "ribera": 1, "canadas": 1, "drenaje": 1, "presas": 1, "accesibilidad": 1, "costas": 0, "total_tipos_amenaza": 5 }, "geometry": { "type": "Point", "coordinates": [ -58.0454, -32.98059 ] } },
{ "type": "Feature", "properties": { "localidad": "SAN JAVIER", "departamento": "RIO NEGRO", "ribera": 1, "canadas": 1, "drenaje": 1, "presas": 1, "accesibilidad": 1, "costas": 0, "total_tipos_amenaza": 5 }, "geometry": { "type": "Point", "coordinates": [ -58.13144, -32.66568 ] } },
{ "type": "Feature", "properties": { "localidad": "GRECCO", "departamento": "RIO NEGRO", "ribera": 0, "canadas": 1, "drenaje": 0, "presas": 0, "accesibilidad": 1, "costas": 0, "total_tipos_amenaza": 2 }, "geometry": { "type": "Point", "coordinates": [ -57.04475, -32.81694 ] } },
{ "type": "Feature", "properties": { "localidad": "ALGORTA", "departamento": "RIO NEGRO", "ribera": 0, "canadas": 1, "drenaje": 0, "presas": 0, "accesibilidad": 0, "costas": 0, "total_tipos_amenaza": 1 }, "geometry": { "type": "Point", "coordinates": [ -57.39468, -32.42253 ] } },
{ "type": "Feature", "properties": { "localidad": "PASO DE LOS MELLIZOS", "departamento": "RIO NEGRO", "ribera": 0, "canadas": 0, "drenaje": 0, "presas": 0, "accesibilidad": 1, "costas": 0, "total_tipos_amenaza": 1 }, "geometry": { "type": "Point", "coordinates": [ -57.16153, -32.52142 ] } },
{ "type": "Feature", "properties": { "localidad": "SARANDI DE NAVARRO", "departamento": "RIO NEGRO", "ribera": 0, "canadas": 0, "drenaje": 0, "presas": 0, "accesibilidad": 1, "costas": 0, "total_tipos_amenaza": 1 }, "geometry": { "type": "Point", "coordinates": [ -56.866, -32.54573 ] } },
{ "type": "Feature", "properties": { "localidad": "BELLACO", "departamento": "RIO NEGRO", "ribera": 0, "canadas": 0, "drenaje": 1, "presas": 0, "accesibilidad": 0, "costas": 0, "total_tipos_amenaza": 1 }, "geometry": { "type": "Point", "coordinates": [ -57.88061, -32.76494 ] } },
{ "type": "Feature", "properties": { "localidad": "LOS ARRAYANES", "departamento": "RIO NEGRO", "ribera": 0, "canadas": 0, "drenaje": 0, "presas": 1, "accesibilidad": 0, "costas": 0, "total_tipos_amenaza": 1 }, "geometry": { "type": "Point", "coordinates": [ -58.03719, -33.23633 ] } },
{ "type": "Feature", "properties": { "localidad": "RIVERA", "departamento": "RIVERA", "ribera": 1, "canadas": 0, "drenaje": 1, "presas": 1, "accesibilidad": 0, "costas": 0, "total_tipos_amenaza": 3 }, "geometry": { "type": "Point", "coordinates": [ -55.5698, -30.91648 ] } },
{ "type": "Feature", "properties": { "localidad": "MINAS DE CORRALES", "departamento": "RIVERA", "ribera": 0, "canadas": 1, "drenaje": 1, "presas": 0, "accesibilidad": 1, "costas": 0, "total_tipos_amenaza": 3 }, "geometry": { "type": "Point", "coordinates": [ -55.47472, -31.57372 ] } },
{ "type": "Feature", "properties": { "localidad": "TRANQUERAS", "departamento": "RIVERA", "ribera": 0, "canadas": 1, "drenaje": 1, "presas": 0, "accesibilidad": 0, "costas": 0, "total_tipos_amenaza": 2 }, "geometry": { "type": "Point", "coordinates": [ -55.76186, -31.19257 ] } },
{ "type": "Feature", "properties": { "localidad": "VICHADERO", "departamento": "RIVERA", "ribera": 0, "canadas": 1, "drenaje": 1, "presas": 0, "accesibilidad": 0, "costas": 0, "total_tipos_amenaza": 2 }, "geometry": { "type": "Point", "coordinates": [ -54.69206, -31.77774 ] } },
{ "type": "Feature", "properties": { "localidad": "LAPUENTE", "departamento": "RIVERA", "ribera": 0, "canadas": 0, "drenaje": 0, "presas": 1, "accesibilidad": 0, "costas": 0, "total_tipos_amenaza": 1 }, "geometry": { "type": "Point", "coordinates": [ -54.96676, -31.4734 ] } },
{ "type": "Feature", "properties": { "localidad": "MOIRONES", "departamento": "RIVERA", "ribera": 0, "canadas": 0, "drenaje": 0, "presas": 1, "accesibilidad": 0, "costas": 0, "total_tipos_amenaza": 1 }, "geometry": { "type": "Point", "coordinates": [ -54.98568, -31.60443 ] } },
{ "type": "Feature", "properties": { "localidad": "LAGOS DEL NORTE", "departamento": "RIVERA", "ribera": 0, "canadas": 1, "drenaje": 0, "presas": 0, "accesibilidad": 0, "costas": 0, "total_tipos_amenaza": 1 }, "geometry": { "type": "Point", "coordinates": [ -55.49659, -30.98229 ] } },
{ "type": "Feature", "properties": { "localidad": "CASTILLOS", "departamento": "ROCHA", "ribera": 0, "canadas": 1, "drenaje": 1, "presas": 0, "accesibilidad": 0, "costas": 0, "total_tipos_amenaza": 2 }, "geometry": { "type": "Point", "coordinates": [ -53.861, -34.19639 ] } },
{ "type": "Feature", "properties": { "localidad": "LASCANO", "departamento": "ROCHA", "ribera": 0, "canadas": 1, "drenaje": 1, "presas": 0, "accesibilidad": 1, "costas": 0, "total_tipos_amenaza": 3 }, "geometry": { "type": "Point", "coordinates": [ -54.2054, -33.67218 ] } },
{ "type": "Feature", "properties": { "localidad": "CHUY", "departamento": "ROCHA", "ribera": 0, "canadas": 1, "drenaje": 1, "presas": 0, "accesibilidad": 0, "costas": 0, "total_tipos_amenaza": 2 }, "geometry": { "type": "Point", "coordinates": [ -53.45817, -33.69772 ] } },
{ "type": "Feature", "properties": { "localidad": "CEBOLLATI", "departamento": "ROCHA", "ribera": 0, "canadas": 1, "drenaje": 1, "presas": 1, "accesibilidad": 1, "costas": 0, "total_tipos_amenaza": 4 }, "geometry": { "type": "Point", "coordinates": [ -53.79388, -33.26988 ] } },
{ "type": "Feature", "properties": { "localidad": "18 DE JULIO", "departamento": "ROCHA", "ribera": 0, "canadas": 1, "drenaje": 0, "presas": 0, "accesibilidad": 0, "costas": 0, "total_tipos_amenaza": 1 }, "geometry": { "type": "Point", "coordinates": [ -53.55129, -33.68297 ] } },
{ "type": "Feature", "properties": { "localidad": "LA PALOMA", "departamento": "ROCHA", "ribera": 1, "canadas": 1, "drenaje": 1, "presas": 0, "accesibilidad": 0, "costas": 1, "total_tipos_amenaza": 4 }, "geometry": { "type": "Point", "coordinates": [ -54.17235, -34.65092 ] } },
{ "type": "Feature", "properties": { "localidad": "SAN LUIS AL MEDIO", "departamento": "ROCHA", "ribera": 0, "canadas": 0, "drenaje": 1, "presas": 1, "accesibilidad": 1, "costas": 0, "total_tipos_amenaza": 3 }, "geometry": { "type": "Point", "coordinates": [ -53.71678, -33.6032 ] } },
{ "type": "Feature", "properties": { "localidad": "LA AGUADA Y COSTA AZUL", "departamento": "ROCHA", "ribera": 1, "canadas": 0, "drenaje": 0, "presas": 0, "accesibilidad": 0, "costas": 1, "total_tipos_amenaza": 2 }, "geometry": { "type": "Point", "coordinates": [ -54.15734, -34.63398 ] } },
{ "type": "Feature", "properties": { "localidad": "AGUAS DULCES", "departamento": "ROCHA", "ribera": 1, "canadas": 0, "drenaje": 1, "presas": 0, "accesibilidad": 0, "costas": 1, "total_tipos_amenaza": 3 }, "geometry": { "type": "Point", "coordinates": [ -53.78363, -34.27748 ] } },
{ "type": "Feature", "properties": { "localidad": "BARRA DEL CHUY", "departamento": "ROCHA", "ribera": 0, "canadas": 1, "drenaje": 1, "presas": 0, "accesibilidad": 0, "costas": 1, "total_tipos_amenaza": 3 }, "geometry": { "type": "Point", "coordinates": [ -53.38721, -33.75297 ] } },
{ "type": "Feature", "properties": { "localidad": "CABO POLONIO", "departamento": "ROCHA", "ribera": 1, "canadas": 0, "drenaje": 0, "presas": 0, "accesibilidad": 0, "costas": 1, "total_tipos_amenaza": 2 }, "geometry": { "type": "Point", "coordinates": [ -53.79308, -34.39981 ] } },
{ "type": "Feature", "properties": { "localidad": "BARRA DE VALIZAS", "departamento": "ROCHA", "ribera": 0, "canadas": 0, "drenaje": 1, "presas": 0, "accesibilidad": 0, "costas": 1, "total_tipos_amenaza": 2 }, "geometry": { "type": "Point", "coordinates": [ -53.797, -34.33556 ] } },
{ "type": "Feature", "properties": { "localidad": "LA PEDRERA", "departamento": "ROCHA", "ribera": 0, "canadas": 0, "drenaje": 1, "presas": 0, "accesibilidad": 0, "costas": 1, "total_tipos_amenaza": 2 }, "geometry": { "type": "Point", "coordinates": [ -54.12985, -34.5908 ] } },
{ "type": "Feature", "properties": { "localidad": "PUIMAYEN", "departamento": "ROCHA", "ribera": 0, "canadas": 0, "drenaje": 0, "presas": 0, "accesibilidad": 0, "costas": 1, "total_tipos_amenaza": 1 }, "geometry": { "type": "Point", "coordinates": [ -53.40442, -33.76784 ] } },
{ "type": "Feature", "properties": { "localidad": "ARACHANIA", "departamento": "ROCHA", "ribera": 0, "canadas": 0, "drenaje": 0, "presas": 0, "accesibilidad": 0, "costas": 1, "total_tipos_amenaza": 1 }, "geometry": { "type": "Point", "coordinates": [ -54.15301, -34.61684 ] } },
{ "type": "Feature", "properties": { "localidad": "PTA. RUBIA Y STA. ISABEL DE LA PEDRERA", "departamento": "ROCHA", "ribera": 0, "canadas": 0, "drenaje": 0, "presas": 0, "accesibilidad": 0, "costas": 1, "total_tipos_amenaza": 1 }, "geometry": { "type": "Point", "coordinates": [ -54.11478, -34.5715 ] } },
{ "type": "Feature", "properties": { "localidad": "PUNTA DEL DIABLO", "departamento": "ROCHA", "ribera": 1, "canadas": 1, "drenaje": 1, "presas": 0, "accesibilidad": 0, "costas": 1, "total_tipos_amenaza": 4 }, "geometry": { "type": "Point", "coordinates": [ -53.54666, -34.04172 ] } },
{ "type": "Feature", "properties": { "localidad": "PUENTE VALIZAS", "departamento": "ROCHA", "ribera": 0, "canadas": 0, "drenaje": 1, "presas": 0, "accesibilidad": 0, "costas": 0, "total_tipos_amenaza": 1 }, "geometry": { "type": "Point", "coordinates": [ -53.84462, -34.35851 ] } },
{ "type": "Feature", "properties": { "localidad": "OCEANIA DEL POLONIO", "departamento": "ROCHA", "ribera": 0, "canadas": 0, "drenaje": 1, "presas": 0, "accesibilidad": 0, "costas": 1, "total_tipos_amenaza": 2 }, "geometry": { "type": "Point", "coordinates": [ -53.91383, -34.44513 ] } },
{ "type": "Feature", "properties": { "localidad": "PUEBLO NUEVO", "departamento": "ROCHA", "ribera": 0, "canadas": 0, "drenaje": 1, "presas": 0, "accesibilidad": 0, "costas": 1, "total_tipos_amenaza": 2 }, "geometry": { "type": "Point", "coordinates": [ -54.0178, -34.50577 ] } },
{ "type": "Feature", "properties": { "localidad": "SAN ANTONIO", "departamento": "ROCHA", "ribera": 0, "canadas": 0, "drenaje": 1, "presas": 0, "accesibilidad": 0, "costas": 1, "total_tipos_amenaza": 2 }, "geometry": { "type": "Point", "coordinates": [ -54.07355, -34.54448 ] } },
{ "type": "Feature", "properties": { "localidad": "SALTO", "departamento": "SALTO", "ribera": 1, "canadas": 1, "drenaje": 1, "presas": 1, "accesibilidad": 0, "costas": 0, "total_tipos_amenaza": 4 }, "geometry": { "type": "Point", "coordinates": [ -57.93856, -31.391 ] } },
{ "type": "Feature", "properties": { "localidad": "BELEN", "departamento": "SALTO", "ribera": 1, "canadas": 1, "drenaje": 1, "presas": 1, "accesibilidad": 0, "costas": 0, "total_tipos_amenaza": 4 }, "geometry": { "type": "Point", "coordinates": [ -57.77663, -30.78638 ] } },
{ "type": "Feature", "properties": { "localidad": "CONSTITUCION", "departamento": "SALTO", "ribera": 1, "canadas": 1, "drenaje": 1, "presas": 0, "accesibilidad": 0, "costas": 0, "total_tipos_amenaza": 3 }, "geometry": { "type": "Point", "coordinates": [ -57.85116, -31.06986 ] } },
{ "type": "Feature", "properties": { "localidad": "FERNANDEZ", "departamento": "SALTO", "ribera": 0, "canadas": 0, "drenaje": 0, "presas": 0, "accesibilidad": 1, "costas": 0, "total_tipos_amenaza": 1 }, "geometry": { "type": "Point", "coordinates": [ -56.35986, -31.18307 ] } },
{ "type": "Feature", "properties": { "localidad": "CHACRAS DE BELEN", "departamento": "SALTO", "ribera": 0, "canadas": 0, "drenaje": 0, "presas": 1, "accesibilidad": 0, "costas": 0, "total_tipos_amenaza": 1 }, "geometry": { "type": "Point", "coordinates": [ -57.76389, -30.78504 ] } },
{ "type": "Feature", "properties": { "localidad": "ALBISU", "departamento": "SALTO", "ribera": 0, "canadas": 1, "drenaje": 0, "presas": 0, "accesibilidad": 0, "costas": 0, "total_tipos_amenaza": 1 }, "geometry": { "type": "Point", "coordinates": [ -57.8149, -31.38411 ] } },
{ "type": "Feature", "properties": { "localidad": "BIASSINI", "departamento": "SALTO", "ribera": 0, "canadas": 0, "drenaje": 1, "presas": 1, "accesibilidad": 0, "costas": 0, "total_tipos_amenaza": 2 }, "geometry": { "type": "Point", "coordinates": [ -57.12595, -31.27716 ] } },
{ "type": "Feature", "properties": { "localidad": "CAMPO DE TODOS", "departamento": "SALTO", "ribera": 0, "canadas": 0, "drenaje": 0, "presas": 0, "accesibilidad": 1, "costas": 0, "total_tipos_amenaza": 1 }, "geometry": { "type": "Point", "coordinates": [ -57.61755, -31.56536 ] } },
{ "type": "Feature", "properties": { "localidad": "CAYETANO", "departamento": "SALTO", "ribera": 0, "canadas": 0, "drenaje": 0, "presas": 0, "accesibilidad": 1, "costas": 0, "total_tipos_amenaza": 1 }, "geometry": { "type": "Point", "coordinates": [ -56.7739, -31.24172 ] } },
{ "type": "Feature", "properties": { "localidad": "TERMAS DEL DAYMAN", "departamento": "SALTO", "ribera": 0, "canadas": 0, "drenaje": 1, "presas": 0, "accesibilidad": 0, "costas": 0, "total_tipos_amenaza": 1 }, "geometry": { "type": "Point", "coordinates": [ -57.91049, -31.44971 ] } },
{ "type": "Feature", "properties": { "localidad": "SAUCEDO", "departamento": "SALTO", "ribera": 0, "canadas": 0, "drenaje": 1, "presas": 0, "accesibilidad": 0, "costas": 0, "total_tipos_amenaza": 1 }, "geometry": { "type": "Point", "coordinates": [ -57.53076, -31.10755 ] } },
{ "type": "Feature", "properties": { "localidad": "CELESTE", "departamento": "SALTO", "ribera": 0, "canadas": 0, "drenaje": 0, "presas": 1, "accesibilidad": 0, "costas": 0, "total_tipos_amenaza": 1 }, "geometry": { "type": "Point", "coordinates": [ -57.12017, -31.31473 ] } },
{ "type": "Feature", "properties": { "localidad": "GARIBALDI", "departamento": "SALTO", "ribera": 0, "canadas": 0, "drenaje": 0, "presas": 0, "accesibilidad": 1, "costas": 0, "total_tipos_amenaza": 1 }, "geometry": { "type": "Point", "coordinates": [ -57.82721, -31.33752 ] } },
{ "type": "Feature", "properties": { "localidad": "TERMAS DEL ARAPEY", "departamento": "SALTO", "ribera": 0, "canadas": 0, "drenaje": 1, "presas": 1, "accesibilidad": 0, "costas": 0, "total_tipos_amenaza": 2 }, "geometry": { "type": "Point", "coordinates": [ -57.52194, -30.94746 ] } },
{ "type": "Feature", "properties": { "localidad": "LAS FLORES", "departamento": "SALTO", "ribera": 0, "canadas": 0, "drenaje": 1, "presas": 0, "accesibilidad": 1, "costas": 0, "total_tipos_amenaza": 2 }, "geometry": { "type": "Point", "coordinates": [ -57.03419, -31.05696 ] } },
{ "type": "Feature", "properties": { "localidad": "LAURELES", "departamento": "SALTO", "ribera": 0, "canadas": 0, "drenaje": 0, "presas": 1, "accesibilidad": 0, "costas": 0, "total_tipos_amenaza": 1 }, "geometry": { "type": "Point", "coordinates": [ -57.52467, -31.49944 ] } },
{ "type": "Feature", "properties": { "localidad": "PASO DE LAS PIEDRAS DE ARERUNGUA", "departamento": "SALTO", "ribera": 0, "canadas": 0, "drenaje": 0, "presas": 1, "accesibilidad": 1, "costas": 0, "total_tipos_amenaza": 2 }, "geometry": { "type": "Point", "coordinates": [ -56.61608, -31.65792 ] } },
{ "type": "Feature", "properties": { "localidad": "PUNTAS DE VALENTIN", "departamento": "SALTO", "ribera": 0, "canadas": 0, "drenaje": 0, "presas": 1, "accesibilidad": 1, "costas": 0, "total_tipos_amenaza": 2 }, "geometry": { "type": "Point", "coordinates": [ -57.13333, -31.50007 ] } },
{ "type": "Feature", "properties": { "localidad": "RINCON DE VALENTIN", "departamento": "SALTO", "ribera": 0, "canadas": 0, "drenaje": 0, "presas": 1, "accesibilidad": 0, "costas": 0, "total_tipos_amenaza": 1 }, "geometry": { "type": "Point", "coordinates": [ -57.19912, -31.28295 ] } },
{ "type": "Feature", "properties": { "localidad": "COLONIA 18 DE JULIO", "departamento": "SALTO", "ribera": 0, "canadas": 0, "drenaje": 1, "presas": 0, "accesibilidad": 0, "costas": 0, "total_tipos_amenaza": 1 }, "geometry": { "type": "Point", "coordinates": [ -57.87324, -31.35703 ] } },
{ "type": "Feature", "properties": { "localidad": "PARQUE JOSE LUIS", "departamento": "SALTO", "ribera": 0, "canadas": 0, "drenaje": 0, "presas": 1, "accesibilidad": 1, "costas": 0, "total_tipos_amenaza": 2 }, "geometry": { "type": "Point", "coordinates": [ -57.94429, -31.28985 ] } },
{ "type": "Feature", "properties": { "localidad": "PASO CEMENTERIO", "departamento": "SALTO", "ribera": 0, "canadas": 0, "drenaje": 1, "presas": 0, "accesibilidad": 0, "costas": 0, "total_tipos_amenaza": 1 }, "geometry": { "type": "Point", "coordinates": [ -56.74188, -31.40262 ] } },
{ "type": "Feature", "properties": { "localidad": "OSIMANI Y LLERENA", "departamento": "SALTO", "ribera": 0, "canadas": 0, "drenaje": 0, "presas": 1, "accesibilidad": 1, "costas": 0, "total_tipos_amenaza": 2 }, "geometry": { "type": "Point", "coordinates": [ -57.96525, -31.33178 ] } },
{ "type": "Feature", "properties": { "localidad": "SAN JOSE DE MAYO", "departamento": "SAN JOSE", "ribera": 1, "canadas": 1, "drenaje": 1, "presas": 0, "accesibilidad": 1, "costas": 0, "total_tipos_amenaza": 4 }, "geometry": { "type": "Point", "coordinates": [ -56.71343, -34.33833 ] } },
{ "type": "Feature", "properties": { "localidad": "LIBERTAD", "departamento": "SAN JOSE", "ribera": 0, "canadas": 1, "drenaje": 0, "presas": 0, "accesibilidad": 0, "costas": 0, "total_tipos_amenaza": 1 }, "geometry": { "type": "Point", "coordinates": [ -56.6199, -34.63656 ] } },
{ "type": "Feature", "properties": { "localidad": "CIUDAD DEL PLATA", "departamento": "SAN JOSE", "ribera": 1, "canadas": 1, "drenaje": 1, "presas": 1, "accesibilidad": 0, "costas": 1, "total_tipos_amenaza": 5 }, "geometry": { "type": "Point", "coordinates": [ -56.39881, -34.76145 ] } },
{ "type": "Feature", "properties": { "localidad": "ITUZAINGO", "departamento": "SAN JOSE", "ribera": 0, "canadas": 0, "drenaje": 0, "presas": 1, "accesibilidad": 0, "costas": 0, "total_tipos_amenaza": 1 }, "geometry": { "type": "Point", "coordinates": [ -56.42575, -34.42052 ] } },
{ "type": "Feature", "properties": { "localidad": "PUNTAS DE VALDEZ", "departamento": "SAN JOSE", "ribera": 0, "canadas": 1, "drenaje": 0, "presas": 0, "accesibilidad": 0, "costas": 0, "total_tipos_amenaza": 1 }, "geometry": { "type": "Point", "coordinates": [ -56.70156, -34.58553 ] } },
{ "type": "Feature", "properties": { "localidad": "RAFAEL PERAZA", "departamento": "SAN JOSE", "ribera": 0, "canadas": 1, "drenaje": 0, "presas": 0, "accesibilidad": 0, "costas": 0, "total_tipos_amenaza": 1 }, "geometry": { "type": "Point", "coordinates": [ -56.79561, -34.52358 ] } },
{ "type": "Feature", "properties": { "localidad": "BOCA DEL CUFRE", "departamento": "SAN JOSE", "ribera": 1, "canadas": 0, "drenaje": 0, "presas": 0, "accesibilidad": 0, "costas": 1, "total_tipos_amenaza": 2 }, "geometry": { "type": "Point", "coordinates": [ -57.1471, -34.44359 ] } },
{ "type": "Feature", "properties": { "localidad": "CAPURRO", "departamento": "SAN JOSE", "ribera": 0, "canadas": 1, "drenaje": 0, "presas": 1, "accesibilidad": 0, "costas": 0, "total_tipos_amenaza": 2 }, "geometry": { "type": "Point", "coordinates": [ -56.46346, -34.42924 ] } },
{ "type": "Feature", "properties": { "localidad": "VILLA MARIA", "departamento": "SAN JOSE", "ribera": 0, "canadas": 1, "drenaje": 0, "presas": 0, "accesibilidad": 0, "costas": 0, "total_tipos_amenaza": 1 }, "geometry": { "type": "Point", "coordinates": [ -56.76136, -34.51506 ] } },
{ "type": "Feature", "properties": { "localidad": "ECILDA PAULLIER", "departamento": "SAN JOSE", "ribera": 0, "canadas": 1, "drenaje": 0, "presas": 0, "accesibilidad": 0, "costas": 0, "total_tipos_amenaza": 1 }, "geometry": { "type": "Point", "coordinates": [ -57.05237, -34.35678 ] } },
{ "type": "Feature", "properties": { "localidad": "KIYU-ORDEIG", "departamento": "SAN JOSE", "ribera": 1, "canadas": 0, "drenaje": 0, "presas": 0, "accesibilidad": 0, "costas": 1, "total_tipos_amenaza": 2 }, "geometry": { "type": "Point", "coordinates": [ -56.73074, -34.69882 ] } },
{ "type": "Feature", "properties": { "localidad": "RINCON DEL PINO", "departamento": "SAN JOSE", "ribera": 0, "canadas": 0, "drenaje": 0, "presas": 0, "accesibilidad": 0, "costas": 1, "total_tipos_amenaza": 1 }, "geometry": { "type": "Point", "coordinates": [ -56.8355, -34.50247 ] } },
{ "type": "Feature", "properties": { "localidad": "SAN GREGORIO", "departamento": "SAN JOSE", "ribera": 0, "canadas": 0, "drenaje": 0, "presas": 0, "accesibilidad": 0, "costas": 1, "total_tipos_amenaza": 1 }, "geometry": { "type": "Point", "coordinates": [ -56.75247, -33.93827 ] } },
{ "type": "Feature", "properties": { "localidad": "CERAMICAS DEL SUR", "departamento": "SAN JOSE", "ribera": 0, "canadas": 0, "drenaje": 0, "presas": 1, "accesibilidad": 0, "costas": 0, "total_tipos_amenaza": 1 }, "geometry": { "type": "Point", "coordinates": [ -56.49695, -34.70741 ] } },
{ "type": "Feature", "properties": { "localidad": "RADIAL", "departamento": "SAN JOSE", "ribera": 0, "canadas": 0, "drenaje": 0, "presas": 0, "accesibilidad": 0, "costas": 1, "total_tipos_amenaza": 1 }, "geometry": { "type": "Point", "coordinates": [ -56.75932, -34.54878 ] } },
{ "type": "Feature", "properties": { "localidad": "COLOLO TINOSA", "departamento": "SAN JOSE", "ribera": 0, "canadas": 0, "drenaje": 0, "presas": 0, "accesibilidad": 0, "costas": 1, "total_tipos_amenaza": 1 }, "geometry": { "type": "Point", "coordinates": [ -56.65648, -34.61446 ] } },
{ "type": "Feature", "properties": { "localidad": "MERCEDES", "departamento": "SORIANO", "ribera": 1, "canadas": 1, "drenaje": 1, "presas": 1, "accesibilidad": 1, "costas": 0, "total_tipos_amenaza": 5 }, "geometry": { "type": "Point", "coordinates": [ -58.03061, -33.25506 ] } },
{ "type": "Feature", "properties": { "localidad": "DOLORES", "departamento": "SORIANO", "ribera": 1, "canadas": 1, "drenaje": 1, "presas": 0, "accesibilidad": 0, "costas": 0, "total_tipos_amenaza": 3 }, "geometry": { "type": "Point", "coordinates": [ -58.21684, -33.53169 ] } },
{ "type": "Feature", "properties": { "localidad": "CARDONA", "departamento": "SORIANO", "ribera": 0, "canadas": 0, "drenaje": 1, "presas": 0, "accesibilidad": 0, "costas": 0, "total_tipos_amenaza": 1 }, "geometry": { "type": "Point", "coordinates": [ -57.36882, -33.86765 ] } },
{ "type": "Feature", "properties": { "localidad": "JOSE ENRIQUE RODO", "departamento": "SORIANO", "ribera": 0, "canadas": 1, "drenaje": 0, "presas": 0, "accesibilidad": 0, "costas": 0, "total_tipos_amenaza": 1 }, "geometry": { "type": "Point", "coordinates": [ -57.53061, -33.69906 ] } },
{ "type": "Feature", "properties": { "localidad": "PALMITAS", "departamento": "SORIANO", "ribera": 0, "canadas": 1, "drenaje": 0, "presas": 0, "accesibilidad": 0, "costas": 0, "total_tipos_amenaza": 1 }, "geometry": { "type": "Point", "coordinates": [ -57.80129, -33.50798 ] } },
{ "type": "Feature", "properties": { "localidad": "VILLA SORIANO", "departamento": "SORIANO", "ribera": 1, "canadas": 1, "drenaje": 1, "presas": 1, "accesibilidad": 0, "costas": 0, "total_tipos_amenaza": 4 }, "geometry": { "type": "Point", "coordinates": [ -58.32105, -33.39794 ] } },
{ "type": "Feature", "properties": { "localidad": "EGAÑA", "departamento": "SORIANO", "ribera": 0, "canadas": 1, "drenaje": 0, "presas": 0, "accesibilidad": 0, "costas": 0, "total_tipos_amenaza": 1 }, "geometry": { "type": "Point", "coordinates": [ -57.62155, -33.60407 ] } },
{ "type": "Feature", "properties": { "localidad": "SANTA CATALINA", "departamento": "SORIANO", "ribera": 0, "canadas": 1, "drenaje": 0, "presas": 0, "accesibilidad": 0, "costas": 0, "total_tipos_amenaza": 1 }, "geometry": { "type": "Point", "coordinates": [ -57.48777, -33.79071 ] } },
{ "type": "Feature", "properties": { "localidad": "RISSO", "departamento": "SORIANO", "ribera": 0, "canadas": 1, "drenaje": 0, "presas": 0, "accesibilidad": 0, "costas": 0, "total_tipos_amenaza": 1 }, "geometry": { "type": "Point", "coordinates": [ -57.57158, -33.62384 ] } },
{ "type": "Feature", "properties": { "localidad": "LA LOMA", "departamento": "SORIANO", "ribera": 0, "canadas": 0, "drenaje": 0, "presas": 1, "accesibilidad": 0, "costas": 0, "total_tipos_amenaza": 1 }, "geometry": { "type": "Point", "coordinates": [ -58.33163, -33.4163 ] } },
{ "type": "Feature", "properties": { "localidad": "TACUAREMBO", "departamento": "TACUAREMBO", "ribera": 1, "canadas": 0, "drenaje": 1, "presas": 1, "accesibilidad": 0, "costas": 0, "total_tipos_amenaza": 3 }, "geometry": { "type": "Point", "coordinates": [ -55.98228, -31.71657 ] } },
{ "type": "Feature", "properties": { "localidad": "SAN GREGORIO DE POLANCO", "departamento": "TACUAREMBO", "ribera": 1, "canadas": 0, "drenaje": 1, "presas": 1, "accesibilidad": 1, "costas": 0, "total_tipos_amenaza": 4 }, "geometry": { "type": "Point", "coordinates": [ -55.83153, -32.60998 ] } },
{ "type": "Feature", "properties": { "localidad": "TAMBORES", "departamento": "TACUAREMBO", "ribera": 0, "canadas": 1, "drenaje": 0, "presas": 0, "accesibilidad": 0, "costas": 0, "total_tipos_amenaza": 1 }, "geometry": { "type": "Point", "coordinates": [ -56.24126, -31.87579 ] } },
{ "type": "Feature", "properties": { "localidad": "ACHAR", "departamento": "TACUAREMBO", "ribera": 0, "canadas": 0, "drenaje": 0, "presas": 0, "accesibilidad": 1, "costas": 0, "total_tipos_amenaza": 1 }, "geometry": { "type": "Point", "coordinates": [ -56.18071, -32.40494 ] } },
{ "type": "Feature", "properties": { "localidad": "ANSINA", "departamento": "TACUAREMBO", "ribera": 0, "canadas": 1, "drenaje": 0, "presas": 0, "accesibilidad": 0, "costas": 0, "total_tipos_amenaza": 1 }, "geometry": { "type": "Point", "coordinates": [ -55.46223, -31.8776 ] } },
{ "type": "Feature", "properties": { "localidad": "LAS TOSCAS", "departamento": "TACUAREMBO", "ribera": 0, "canadas": 0, "drenaje": 1, "presas": 0, "accesibilidad": 0, "costas": 0, "total_tipos_amenaza": 1 }, "geometry": { "type": "Point", "coordinates": [ -55.0112, -32.17848 ] } },
{ "type": "Feature", "properties": { "localidad": "BALNEARIO IPORA", "departamento": "TACUAREMBO", "ribera": 0, "canadas": 0, "drenaje": 0, "presas": 1, "accesibilidad": 0, "costas": 0, "total_tipos_amenaza": 1 }, "geometry": { "type": "Point", "coordinates": [ -55.9596, -31.66726 ] } },
{ "type": "Feature", "properties": { "localidad": "TREINTA Y TRES", "departamento": "TREINTA Y TRE", "ribera": 1, "canadas": 1, "drenaje": 1, "presas": 0, "accesibilidad": 1, "costas": 0, "total_tipos_amenaza": 4 }, "geometry": { "type": "Point", "coordinates": [ -54.38252, -33.23223 ] } },
{ "type": "Feature", "properties": { "localidad": "VERGARA", "departamento": "TREINTA Y TRE", "ribera": 1, "canadas": 1, "drenaje": 1, "presas": 0, "accesibilidad": 0, "costas": 0, "total_tipos_amenaza": 3 }, "geometry": { "type": "Point", "coordinates": [ -53.94155, -32.94418 ] } },
{ "type": "Feature", "properties": { "localidad": "GRAL. ENRIQUE MARTINEZ", "departamento": "TREINTA Y TRE", "ribera": 1, "canadas": 1, "drenaje": 1, "presas": 1, "accesibilidad": 1, "costas": 0, "total_tipos_amenaza": 5 }, "geometry": { "type": "Point", "coordinates": [ -53.80581, -33.20397 ] } },
{ "type": "Feature", "properties": { "localidad": "CERRO CHATO", "departamento": "TREINTA Y TRE", "ribera": 0, "canadas": 1, "drenaje": 0, "presas": 0, "accesibilidad": 0, "costas": 0, "total_tipos_amenaza": 1 }, "geometry": { "type": "Point", "coordinates": [ -55.129, -33.10885 ] } },
{ "type": "Feature", "properties": { "localidad": "ESTACION RINCON", "departamento": "TREINTA Y TRE", "ribera": 0, "canadas": 0, "drenaje": 0, "presas": 1, "accesibilidad": 0, "costas": 0, "total_tipos_amenaza": 1 }, "geometry": { "type": "Point", "coordinates": [ -53.8273, -32.83168 ] } },
{ "type": "Feature", "properties": { "localidad": "ARROCERA RINCON", "departamento": "TREINTA Y TRE", "ribera": 0, "canadas": 0, "drenaje": 0, "presas": 1, "accesibilidad": 1, "costas": 0, "total_tipos_amenaza": 2 }, "geometry": { "type": "Point", "coordinates": [ -53.49311, -32.7896 ] } },
{ "type": "Feature", "properties": { "localidad": "PUNTAS DEL PARAO", "departamento": "TREINTA Y TRE", "ribera": 0, "canadas": 0, "drenaje": 0, "presas": 0, "accesibilidad": 1, "costas": 0, "total_tipos_amenaza": 1 }, "geometry": { "type": "Point", "coordinates": [ -54.37846, -32.7256 ] } },
{ "type": "Feature", "properties": { "localidad": "VILLA PASSANO", "departamento": "TREINTA Y TRE", "ribera": 0, "canadas": 0, "drenaje": 0, "presas": 1, "accesibilidad": 0, "costas": 0, "total_tipos_amenaza": 1 }, "geometry": { "type": "Point", "coordinates": [ -53.9032, -33.29204 ] } },
{ "type": "Feature", "properties": { "localidad": "ARROCERA LOS TEROS", "departamento": "TREINTA Y TRE", "ribera": 0, "canadas": 0, "drenaje": 0, "presas": 0, "accesibilidad": 1, "costas": 0, "total_tipos_amenaza": 1 }, "geometry": { "type": "Point", "coordinates": [ -53.92349, -33.15034 ] } },
{ "type": "Feature", "properties": { "localidad": "ARROCERA BONOMO", "departamento": "TREINTA Y TRE", "ribera": 0, "canadas": 0, "drenaje": 0, "presas": 0, "accesibilidad": 1, "costas": 0, "total_tipos_amenaza": 1 }, "geometry": { "type": "Point", "coordinates": [ -53.93365, -33.14956 ] } },
{ "type": "Feature", "properties": { "localidad": "ARROCERA EL TIGRE", "departamento": "TREINTA Y TRE", "ribera": 0, "canadas": 0, "drenaje": 0, "presas": 0, "accesibilidad": 1, "costas": 0, "total_tipos_amenaza": 1 }, "geometry": { "type": "Point", "coordinates": [ -53.63911, -32.97216 ] } },
{ "type": "Feature", "properties": { "localidad": "ARROCERA LA CATUMBERA", "departamento": "TREINTA Y TRE", "ribera": 0, "canadas": 0, "drenaje": 0, "presas": 0, "accesibilidad": 1, "costas": 0, "total_tipos_amenaza": 1 }, "geometry": { "type": "Point", "coordinates": [ -53.38397, -32.83151 ] } },
{ "type": "Feature", "properties": { "localidad": "ARROCERA LAS PALMAS", "departamento": "TREINTA Y TRE", "ribera": 0, "canadas": 0, "drenaje": 0, "presas": 0, "accesibilidad": 1, "costas": 0, "total_tipos_amenaza": 1 }, "geometry": { "type": "Point", "coordinates": [ -53.99154, -33.09903 ] } },
{ "type": "Feature", "properties": { "localidad": "ARROCERA MINI", "departamento": "TREINTA Y TRE", "ribera": 0, "canadas": 0, "drenaje": 0, "presas": 0, "accesibilidad": 1, "costas": 0, "total_tipos_amenaza": 1 }, "geometry": { "type": "Point", "coordinates": [ -53.63485, -32.95868 ] } },
{ "type": "Feature", "properties": { "localidad": "ARROCERA SAN FERNANDO", "departamento": "TREINTA Y TRE", "ribera": 0, "canadas": 0, "drenaje": 0, "presas": 1, "accesibilidad": 1, "costas": 0, "total_tipos_amenaza": 2 }, "geometry": { "type": "Point", "coordinates": [ -53.4142, -32.80239 ] } },
{ "type": "Feature", "properties": { "localidad": "ARROCERA ZAPATA", "departamento": "TREINTA Y TRE", "ribera": 0, "canadas": 0, "drenaje": 0, "presas": 0, "accesibilidad": 1, "costas": 0, "total_tipos_amenaza": 1 }, "geometry": { "type": "Point", "coordinates": [ -53.61769, -32.863 ] } },
{ "type": "Feature", "properties": { "localidad": "MONTEVIDEO", "departamento": "MONTEVIDEO", "ribera": 1, "canadas": 1, "drenaje": 1, "presas": 0, "accesibilidad": 0, "costas": 1, "total_tipos_amenaza": 4 }, "geometry": { "type": "Point", "coordinates": [ -56.20073, -34.83459 ] } },
{ "type": "Feature", "properties": { "localidad": "LA PAZ", "departamento": "COLONIA", "ribera": 0, "canadas": 1, "drenaje": 0, "presas": 0, "accesibilidad": 1, "costas": 0, "total_tipos_amenaza": 2 }, "geometry": { "type": "Point", "coordinates": [ -57.30712, -34.34789 ] } },
{ "type": "Feature", "properties": { "localidad": "RODRIGUEZ", "departamento": "SAN JOSE", "ribera": 0, "canadas": 1, "drenaje": 0, "presas": 0, "accesibilidad": 0, "costas": 0, "total_tipos_amenaza": 1 }, "geometry": { "type": "Point", "coordinates": [ -56.53768, -34.38026 ] } },
{ "type": "Feature", "properties": { "localidad": "CALNU", "departamento": "ARTIGAS", "ribera": 0, "canadas": 0, "drenaje": 0, "presas": 1, "accesibilidad": 0, "costas": 0, "total_tipos_amenaza": 1 }, "geometry": { "type": "Point", "coordinates": [ -57.62014, -30.33012 ] } },
{ "type": "Feature", "properties": { "localidad": "CANELONES", "departamento": "CANELONES", "ribera": 1, "canadas": 1, "drenaje": 1, "presas": 0, "accesibilidad": 1, "costas": 0, "total_tipos_amenaza": 4 }, "geometry": { "type": "Point", "coordinates": [ -56.28135, -34.52488 ] } },
{ "type": "Feature", "properties": { "localidad": "SOLYMAR", "departamento": "CANELONES", "ribera": 0, "canadas": 0, "drenaje": 1, "presas": 0, "accesibilidad": 0, "costas": 0, "total_tipos_amenaza": 1 }, "geometry": { "type": "Point", "coordinates": [ -55.96715, -34.82746 ] } },
{ "type": "Feature", "properties": { "localidad": "PINAMAR - PINEPARK", "departamento": "CANELONES", "ribera": 0, "canadas": 0, "drenaje": 1, "presas": 0, "accesibilidad": 0, "costas": 1, "total_tipos_amenaza": 2 }, "geometry": { "type": "Point", "coordinates": [ -55.85602, -34.77521 ] } },
{ "type": "Feature", "properties": { "localidad": "25 DE AGOSTO", "departamento": "FLORIDA", "ribera": 1, "canadas": 1, "drenaje": 1, "presas": 1, "accesibilidad": 1, "costas": 0, "total_tipos_amenaza": 5 }, "geometry": { "type": "Point", "coordinates": [ -56.40726, -34.41262 ] } },
{ "type": "Feature", "properties": { "localidad": "LAS FLORES", "departamento": "MALDONADO", "ribera": 0, "canadas": 1, "drenaje": 0, "presas": 0, "accesibilidad": 0, "costas": 1, "total_tipos_amenaza": 2 }, "geometry": { "type": "Point", "coordinates": [ -55.32964, -34.81308 ] } },
{ "type": "Feature", "properties": { "localidad": "LA CORONILLA", "departamento": "ROCHA", "ribera": 0, "canadas": 1, "drenaje": 1, "presas": 0, "accesibilidad": 0, "costas": 1, "total_tipos_amenaza": 3 }, "geometry": { "type": "Point", "coordinates": [ -53.51364, -33.89459 ] } },
{ "type": "Feature", "properties": { "localidad": "EL TALA", "departamento": "SORIANO", "ribera": 0, "canadas": 0, "drenaje": 0, "presas": 0, "accesibilidad": 1, "costas": 0, "total_tipos_amenaza": 1 }, "geometry": { "type": "Point", "coordinates": [ -57.41252, -33.20335 ] } },
{ "type": "Feature", "properties": { "localidad": "PASO DE LOS TOROS", "departamento": "TACUAREMBO", "ribera": 1, "canadas": 1, "drenaje": 1, "presas": 1, "accesibilidad": 0, "costas": 0, "total_tipos_amenaza": 4 }, "geometry": { "type": "Point", "coordinates": [ -56.51818, -32.8053 ] } },
{ "type": "Feature", "properties": { "localidad": "CUARO", "departamento": "ARTIGAS", "ribera": 0, "canadas": 0, "drenaje": 0, "presas": 0, "accesibilidad": 1, "costas": 0, "total_tipos_amenaza": 1 }, "geometry": { "type": "Point", "coordinates": [ -56.90396, -30.61177 ] } },
{ "type": "Feature", "properties": { "localidad": "CUCHILLA ALTA", "departamento": "CANELONES", "ribera": 0, "canadas": 0, "drenaje": 1, "presas": 0, "accesibilidad": 0, "costas": 0, "total_tipos_amenaza": 1 }, "geometry": { "type": "Point", "coordinates": [ -55.49702, -34.79053 ] } },
{ "type": "Feature", "properties": { "localidad": "LAGO MERIN", "departamento": "CERRO LARGO", "ribera": 0, "canadas": 0, "drenaje": 1, "presas": 0, "accesibilidad": 0, "costas": 0, "total_tipos_amenaza": 1 }, "geometry": { "type": "Point", "coordinates": [ -53.26233, -32.74216 ] } },
{ "type": "Feature", "properties": { "localidad": "TRINIDAD", "departamento": "FLORES", "ribera": 0, "canadas": 1, "drenaje": 1, "presas": 1, "accesibilidad": 0, "costas": 0, "total_tipos_amenaza": 3 }, "geometry": { "type": "Point", "coordinates": [ -56.89958, -33.52148 ] } },
{ "type": "Feature", "properties": { "localidad": "CASUPA", "departamento": "FLORIDA", "ribera": 0, "canadas": 1, "drenaje": 0, "presas": 0, "accesibilidad": 0, "costas": 0, "total_tipos_amenaza": 1 }, "geometry": { "type": "Point", "coordinates": [ -55.64789, -34.1 ] } },
{ "type": "Feature", "properties": { "localidad": "LA BARRA", "departamento": "MALDONADO", "ribera": 0, "canadas": 1, "drenaje": 0, "presas": 0, "accesibilidad": 0, "costas": 1, "total_tipos_amenaza": 2 }, "geometry": { "type": "Point", "coordinates": [ -54.85607, -34.90892 ] } },
{ "type": "Feature", "properties": { "localidad": "ROCHA", "departamento": "ROCHA", "ribera": 0, "canadas": 1, "drenaje": 1, "presas": 0, "accesibilidad": 1, "costas": 0, "total_tipos_amenaza": 3 }, "geometry": { "type": "Point", "coordinates": [ -54.3266, -34.47923 ] } },
{ "type": "Feature", "properties": { "localidad": "VELAZQUEZ", "departamento": "ROCHA", "ribera": 0, "canadas": 1, "drenaje": 0, "presas": 0, "accesibilidad": 0, "costas": 0, "total_tipos_amenaza": 1 }, "geometry": { "type": "Point", "coordinates": [ -54.28053, -34.03312 ] } },
{ "type": "Feature", "properties": { "localidad": "18 DE JULIO (PUEBLO NUEVO)", "departamento": "SAN JOSE", "ribera": 0, "canadas": 0, "drenaje": 0, "presas": 1, "accesibilidad": 0, "costas": 0, "total_tipos_amenaza": 1 }, "geometry": { "type": "Point", "coordinates": [ -56.44672, -34.44183 ] } },
{ "type": "Feature", "properties": { "localidad": "ARROCERA LOS CEIBOS", "departamento": "TREINTA Y TRE", "ribera": 0, "canadas": 0, "drenaje": 0, "presas": 0, "accesibilidad": 1, "costas": 0, "total_tipos_amenaza": 1 }, "geometry": { "type": "Point", "coordinates": [ -53.56517, -32.95358 ] } },
{ "type": "Feature", "properties": { "localidad": "ARROCERA LA QUERENCIA", "departamento": "TREINTA Y TRE", "ribera": 0, "canadas": 0, "drenaje": 0, "presas": 0, "accesibilidad": 1, "costas": 0, "total_tipos_amenaza": 1 }, "geometry": { "type": "Point", "coordinates": [ -53.37355, -32.86265 ] } },
{ "type": "Feature", "properties": { "localidad": "ARROCERA PROCIPA", "departamento": "TREINTA Y TRE", "ribera": 0, "canadas": 0, "drenaje": 0, "presas": 1, "accesibilidad": 1, "costas": 0, "total_tipos_amenaza": 2 }, "geometry": { "type": "Point", "coordinates": [ -53.90305, -33.25376 ] } }
]
}
