{
"type": "FeatureCollection",
"name": "estaciones",
"xy_coordinate_resolution": 1e-05,
"features": [
{ "type": "Feature", "properties": { "id": 184, "codigo": "2.0", "nombre": "Mercedes (Puerto)", "curso": "Río Negro", "tipo": "Hidrométrica", "area_km2": 70259.6, "cota_cero": 0.84, "HYRIV_ID": 61497130, "q_medio": 1005.252, "q_medio_fuente": "DINAGUA", "codigo5": 58830, "dist_m": 702.91765700164376, "join_ok": true }, "geometry": { "type": "Point", "coordinates": [ -58.03851, -33.24592 ] } },
{ "type": "Feature", "properties": { "id": 189, "codigo": "5.1", "nombre": "Paso de los Toros", "curso": "Río Negro", "tipo": "Limnimétrica", "area_km2": 40241.7, "cota_cero": 47.21, "HYRIV_ID": 61492851, "q_medio": 626.023, "q_medio_fuente": "DINAGUA", "codigo5": 55135, "dist_m": 263.55713720974569, "join_ok": true }, "geometry": { "type": "Point", "coordinates": [ -56.51116, -32.8204 ] } },
{ "type": "Feature", "properties": { "id": 1938, "codigo": "7.0", "nombre": "Paso Ramírez", "curso": "Río Negro", "tipo": "Limnimétrica", "area_km2": 29983.4, "cota_cero": 72.87, "HYRIV_ID": 61489676, "q_medio": 482.603, "q_medio_fuente": "DINAGUA", "codigo5": 54000, "dist_m": 324.85504546580034, "join_ok": true }, "geometry": { "type": "Point", "coordinates": [ -55.50542, -32.50501 ] } },
{ "type": "Feature", "properties": { "id": 194, "codigo": "8.0", "nombre": "Paso Pereira", "curso": "Río Negro", "tipo": "Limnimétrica", "area_km2": 11625.0, "cota_cero": 84.01, "HYRIV_ID": 61489398, "q_medio": 130.455, "q_medio_fuente": "HydroRIVERS", "codigo5": 50835, "dist_m": 847.68793721828513, "join_ok": true }, "geometry": { "type": "Point", "coordinates": [ -55.22761, -32.44509 ] } },
{ "type": "Feature", "properties": { "id": 198, "codigo": "10.1", "nombre": "Treinta y Tres (R.8)", "curso": "Río Olimar Grande", "tipo": "Hidrométrica + T", "area_km2": 4677.9, "cota_cero": 25.74, "HYRIV_ID": 61497462, "q_medio": 80.43, "q_medio_fuente": "DINAGUA", "codigo5": 43770, "dist_m": 11.187277175088687, "join_ok": true }, "geometry": { "type": "Point", "coordinates": [ -54.40196, -33.24204 ] } },
{ "type": "Feature", "properties": { "id": 201, "codigo": "13.0", "nombre": "La Charqueada", "curso": "Río Cebollatí", "tipo": "Limnimétrica + T + P", "area_km2": 14748.3, "cota_cero": 0.67, "HYRIV_ID": 61497058, "q_medio": 227.632, "q_medio_fuente": "DINAGUA", "codigo5": 44800, "dist_m": 228.57942868740992, "join_ok": true }, "geometry": { "type": "Point", "coordinates": [ -53.80037, -33.2086 ] } },
{ "type": "Feature", "properties": { "id": 202, "codigo": "14.0", "nombre": "Picada de Corbo", "curso": "Río Cebollatí", "tipo": "Hidrométrica + T", "area_km2": 2898.2, "cota_cero": 47.96, "HYRIV_ID": 61503462, "q_medio": 41.964, "q_medio_fuente": "DINAGUA", "codigo5": 44409, "dist_m": 242.19240878133553, "join_ok": true }, "geometry": { "type": "Point", "coordinates": [ -54.76891, -33.83007 ] } },
{ "type": "Feature", "properties": { "id": 203, "codigo": "15.0", "nombre": "Paso Averías", "curso": "Río Cebollatí", "tipo": "Hidrométrica + T + P", "area_km2": 7867.5, "cota_cero": 19.84, "HYRIV_ID": 61501185, "q_medio": 113.702, "q_medio_fuente": "DINAGUA", "codigo5": 44570, "dist_m": 184.24656578189325, "join_ok": true }, "geometry": { "type": "Point", "coordinates": [ -54.32923, -33.61328 ] } },
{ "type": "Feature", "properties": { "id": 205, "codigo": "17.0", "nombre": "Río Branco", "curso": "Río Yaguarón", "tipo": "Limnimétrica", "area_km2": 7148.1, "cota_cero": 0.79, "HYRIV_ID": 61490525, "q_medio": 142.216, "q_medio_fuente": "HydroRIVERS", "codigo5": 40690, "dist_m": 35.675928452522847, "join_ok": true }, "geometry": { "type": "Point", "coordinates": [ -53.37771, -32.57438 ] } },
{ "type": "Feature", "properties": { "id": 206, "codigo": "17.1", "nombre": "Puente Mauá", "curso": "Río Yaguarón", "tipo": "Limnimétrica + T + P", "area_km2": 7149.0, "cota_cero": 0.72, "HYRIV_ID": 61490525, "q_medio": 142.216, "q_medio_fuente": "HydroRIVERS", "codigo5": 40690, "dist_m": 140.27202164854054, "join_ok": true }, "geometry": { "type": "Point", "coordinates": [ -53.37708, -32.57186 ] } },
{ "type": "Feature", "properties": { "id": 207, "codigo": "18.0", "nombre": "Dolores", "curso": "Río San Salvador", "tipo": "Limnimétrica", "area_km2": 2261.1, "cota_cero": 0.5, "HYRIV_ID": 61500206, "q_medio": 20.73, "q_medio_fuente": "DINAGUA", "codigo5": 19360, "dist_m": 65.565794245053681, "join_ok": true }, "geometry": { "type": "Point", "coordinates": [ -58.22676, -33.51935 ] } },
{ "type": "Feature", "properties": { "id": 208, "codigo": "19.0", "nombre": "Carmelo - Atracadero", "curso": "Ao. De Las Vacas", "tipo": "Limnimétrica + T", "area_km2": 739.6, "cota_cero": 0.76, "HYRIV_ID": 61505229, "q_medio": 4.362, "q_medio_fuente": "DINAGUA", "codigo5": 20820, "dist_m": 159.56193404176065, "join_ok": true }, "geometry": { "type": "Point", "coordinates": [ -58.29024, -34.00915 ] } },
{ "type": "Feature", "properties": { "id": 209, "codigo": "19.1", "nombre": "Carmelo - Varadero", "curso": "Ao. De Las Vacas", "tipo": "Limnimétrica", "area_km2": 737.7, "cota_cero": 0.67, "HYRIV_ID": 61505229, "q_medio": 4.362, "q_medio_fuente": "DINAGUA", "codigo5": 20820, "dist_m": 208.48850420282545, "join_ok": true }, "geometry": { "type": "Point", "coordinates": [ -58.28211, -34.00437 ] } },
{ "type": "Feature", "properties": { "id": 1933, "codigo": "22.0", "nombre": "Pando Pte. FFCC", "curso": "Ao. Pando", "tipo": "Limnimétrica", "area_km2": 611.5, "cota_cero": 1.67, "HYRIV_ID": 61511882, "q_medio": 6.342, "q_medio_fuente": "DINAGUA", "codigo5": 26820, "dist_m": 777.79397653855244, "join_ok": true }, "geometry": { "type": "Point", "coordinates": [ -55.94455, -34.70437 ] } },
{ "type": "Feature", "properties": { "id": 223, "codigo": "29.1", "nombre": "Constitución", "curso": "Río Uruguay", "tipo": "Limnimétrica", "area_km2": 239600.0, "cota_cero": 33.55, "HYRIV_ID": 61472861, "q_medio": 5891.316, "q_medio_fuente": "HydroRIVERS", "codigo5": 14210, "dist_m": 1288.9755537961564, "join_ok": true }, "geometry": { "type": "Point", "coordinates": [ -57.85941, -31.0648 ] } },
{ "type": "Feature", "properties": { "id": 225, "codigo": "31.0", "nombre": "Paysandú", "curso": "Río Uruguay", "tipo": "Limnimétrica + T", "area_km2": 262400.0, "cota_cero": 1.02, "HYRIV_ID": 61487832, "q_medio": 6321.94, "q_medio_fuente": "HydroRIVERS", "codigo5": 18310, "dist_m": 149.88010719349722, "join_ok": true }, "geometry": { "type": "Point", "coordinates": [ -58.10395, -32.31455 ] } },
{ "type": "Feature", "properties": { "id": 227, "codigo": "33.0", "nombre": "Fray Bentos", "curso": "Río Uruguay", "tipo": "Limnimétrica + T", "area_km2": 267900.0, "cota_cero": 0.55, "HYRIV_ID": 61495529, "q_medio": 83.962, "q_medio_fuente": "HydroRIVERS", "codigo5": null, "dist_m": 10690.862498923425, "join_ok": false }, "geometry": { "type": "Point", "coordinates": [ -58.31191, -33.11184 ] } },
{ "type": "Feature", "properties": { "id": 229, "codigo": "36.0", "nombre": "Punta San Luis", "curso": "Laguna Merín", "tipo": "Limnimétrica + T + P", "area_km2": null, "cota_cero": -100.0, "HYRIV_ID": 61500178, "q_medio": 57.716, "q_medio_fuente": "DINAGUA", "codigo5": null, "dist_m": 431.01189484318519, "join_ok": false }, "geometry": { "type": "Point", "coordinates": [ -53.55878, -33.51393 ] } },
{ "type": "Feature", "properties": { "id": 230, "codigo": "38.0", "nombre": "Nueva Palmira", "curso": "Río Uruguay", "tipo": "Limnimétrica + T", "area_km2": 353000.0, "cota_cero": 0.72, "HYRIV_ID": 61504622, "q_medio": 2.901, "q_medio_fuente": "DINAGUA", "codigo5": 20408, "dist_m": 9170.1918655989411, "join_ok": false }, "geometry": { "type": "Point", "coordinates": [ -58.42112, -33.87893 ] } },
{ "type": "Feature", "properties": { "id": 233, "codigo": "43.1", "nombre": "Termas del Arapey", "curso": "Río Arapey Grande", "tipo": "Limnimétrica", "area_km2": 11336.8, "cota_cero": 28.55, "HYRIV_ID": 61470988, "q_medio": 208.69, "q_medio_fuente": "DINAGUA", "codigo5": 13900, "dist_m": 89.508747805520059, "join_ok": true }, "geometry": { "type": "Point", "coordinates": [ -57.51756, -30.94966 ] } },
{ "type": "Feature", "properties": { "id": 234, "codigo": "44.0", "nombre": "Fray Marcos", "curso": "Río Santa Lucía", "tipo": "Hidrométrica + T", "area_km2": 2759.1, "cota_cero": 44.41, "HYRIV_ID": 61508028, "q_medio": 36.803, "q_medio_fuente": "DINAGUA", "codigo5": 60570, "dist_m": 6.1124746217031323, "join_ok": true }, "geometry": { "type": "Point", "coordinates": [ -55.74125, -34.21607 ] } },
{ "type": "Feature", "properties": { "id": 1907, "codigo": "45.0", "nombre": "Lag. del Sauce (vertedero)", "curso": "Laguna Del Sauce", "tipo": "Hidrométrica + T", "area_km2": 705.4, "cota_cero": 6.01, "HYRIV_ID": 61513051, "q_medio": 2.491, "q_medio_fuente": "DINAGUA", "codigo5": 29520, "dist_m": 279.22280480534232, "join_ok": false }, "geometry": { "type": "Point", "coordinates": [ -55.06908, -34.8622 ] } },
{ "type": "Feature", "properties": { "id": 236, "codigo": "45.1", "nombre": "Ao. Potrero", "curso": "Ao. Del Potrero", "tipo": "Limnimétrica", "area_km2": 705.5, "cota_cero": 1.95, "HYRIV_ID": 61513051, "q_medio": 2.491, "q_medio_fuente": "DINAGUA", "codigo5": 29520, "dist_m": 317.7432471696556, "join_ok": false }, "geometry": { "type": "Point", "coordinates": [ -55.07026, -34.86297 ] } },
{ "type": "Feature", "properties": { "id": 238, "codigo": "46.1", "nombre": "San Carlos - Puente Ruta 9", "curso": "Ao. San Carlos", "tipo": "Hidrométrica + T", "area_km2": 803.7, "cota_cero": 2.42, "HYRIV_ID": 61512562, "q_medio": 11.104, "q_medio_fuente": "DINAGUA", "codigo5": 30120, "dist_m": 109.85821436114848, "join_ok": true }, "geometry": { "type": "Point", "coordinates": [ -54.90088, -34.76943 ] } },
{ "type": "Feature", "properties": { "id": 244, "codigo": "51.1", "nombre": "Paso Manuel Díaz", "curso": "Río Tacuarembó", "tipo": "Hidrométrica", "area_km2": 2207.7, "cota_cero": 115.04, "HYRIV_ID": 61478544, "q_medio": 40.96, "q_medio_fuente": "DINAGUA", "codigo5": 51610, "dist_m": 645.19002262456638, "join_ok": true }, "geometry": { "type": "Point", "coordinates": [ -55.68667, -31.5296 ] } },
{ "type": "Feature", "properties": { "id": 245, "codigo": "52.0", "nombre": "Paso del Borracho", "curso": "Río Tacuarembó", "tipo": "Hidrométrica + T", "area_km2": 6596.9, "cota_cero": 97.26, "HYRIV_ID": 61483073, "q_medio": 121.72, "q_medio_fuente": "DINAGUA", "codigo5": null, "dist_m": 1061.5495872737308, "join_ok": true }, "geometry": { "type": "Point", "coordinates": [ -55.47099, -31.87573 ] } },
{ "type": "Feature", "properties": { "id": 126, "codigo": "53.1", "nombre": "Florida - Puente R.5", "curso": "Río Santa Lucía Chico", "tipo": "Hidrométrica + T", "area_km2": 1747.1, "cota_cero": 44.34, "HYRIV_ID": 61506149, "q_medio": 22.469, "q_medio_fuente": "DINAGUA", "codigo5": 61510, "dist_m": 12.623467059488309, "join_ok": true }, "geometry": { "type": "Point", "coordinates": [ -56.20339, -34.09114 ] } },
{ "type": "Feature", "properties": { "id": 130, "codigo": "55.1", "nombre": "Picada de Coelho", "curso": "Ao. Yaguarí", "tipo": "Hidrométrica + T", "area_km2": 2491.9, "cota_cero": 93.57, "HYRIV_ID": 61484343, "q_medio": 41.915, "q_medio_fuente": "DINAGUA", "codigo5": 53666, "dist_m": 2495.0899611014534, "join_ok": false }, "geometry": { "type": "Point", "coordinates": [ -55.36637, -32.03367 ] } },
{ "type": "Feature", "properties": { "id": 137, "codigo": "61.0", "nombre": "Po. de la Compañía", "curso": "Ao. Corrales", "tipo": "Hidrométrica + T", "area_km2": 1040.9, "cota_cero": -100.0, "HYRIV_ID": 61479410, "q_medio": 19.824, "q_medio_fuente": "DINAGUA", "codigo5": 51770, "dist_m": 30.282819910196782, "join_ok": true }, "geometry": { "type": "Point", "coordinates": [ -55.46553, -31.57761 ] } },
{ "type": "Feature", "properties": { "id": 138, "codigo": "62.0", "nombre": "Po.de los Mellizos (Puente R3)", "curso": "Ao. Grande", "tipo": "Hidrométrica", "area_km2": 2198.6, "cota_cero": 21.18, "HYRIV_ID": 61493833, "q_medio": 23.579, "q_medio_fuente": "DINAGUA", "codigo5": 58160, "dist_m": 76.72938405155837, "join_ok": true }, "geometry": { "type": "Point", "coordinates": [ -57.41358, -32.90724 ] } },
{ "type": "Feature", "properties": { "id": 140, "codigo": "64.0", "nombre": "Paso Mazangano", "curso": "Río Negro", "tipo": "Hidrométrica + T", "area_km2": 6513.1, "cota_cero": 103.57, "HYRIV_ID": 61485445, "q_medio": 73.782, "q_medio_fuente": "HydroRIVERS", "codigo5": 50470, "dist_m": 557.21982551650183, "join_ok": true }, "geometry": { "type": "Point", "coordinates": [ -54.66719, -32.10971 ] } },
{ "type": "Feature", "properties": { "id": 142, "codigo": "65.1", "nombre": "Paso Aguiar", "curso": "Río Negro", "tipo": "Hidrométrica + T", "area_km2": 8041.5, "cota_cero": 94.44, "HYRIV_ID": 61487846, "q_medio": 89.779, "q_medio_fuente": "HydroRIVERS", "codigo5": 50606, "dist_m": 1112.7852582642754, "join_ok": true }, "geometry": { "type": "Point", "coordinates": [ -54.83098, -32.28607 ] } },
{ "type": "Feature", "properties": { "id": 145, "codigo": "67.1", "nombre": "Laguna Garzón", "curso": "Laguna Garzón", "tipo": "Limnimétrica + T", "area_km2": 556.2, "cota_cero": 1.08, "HYRIV_ID": 61512248, "q_medio": 5.149, "q_medio_fuente": "DINAGUA", "codigo5": 31509, "dist_m": 5027.3593587904606, "join_ok": false }, "geometry": { "type": "Point", "coordinates": [ -54.5758, -34.77856 ] } },
{ "type": "Feature", "properties": { "id": 150, "codigo": "71.0", "nombre": "Pan de Azucar Pte. R-9", "curso": "Ao. Pan De Azúcar", "tipo": "Hidrométrica + T", "area_km2": 317.9, "cota_cero": 17.01, "HYRIV_ID": 61512524, "q_medio": 4.292, "q_medio_fuente": "DINAGUA", "codigo5": 29514, "dist_m": 225.89988866522793, "join_ok": true }, "geometry": { "type": "Point", "coordinates": [ -55.23375, -34.78102 ] } },
{ "type": "Feature", "properties": { "id": 157, "codigo": "76.1", "nombre": "Paso de la Estiba", "curso": "Ao. De Rocha", "tipo": "Hidrométrica + T", "area_km2": 436.1, "cota_cero": 3.39, "HYRIV_ID": 61510310, "q_medio": 6.032, "q_medio_fuente": "DINAGUA", "codigo5": 31821, "dist_m": 210.14013745278871, "join_ok": true }, "geometry": { "type": "Point", "coordinates": [ -54.3428, -34.48185 ] } },
{ "type": "Feature", "properties": { "id": 158, "codigo": "77.0", "nombre": "Presa Canelón Grande", "curso": "Ao. Canelón Grande", "tipo": "Limnimétrica + T", "area_km2": 284.2, "cota_cero": 0.01, "HYRIV_ID": 61509736, "q_medio": 2.731, "q_medio_fuente": "DINAGUA", "codigo5": 63009, "dist_m": 71.129197878931009, "join_ok": true }, "geometry": { "type": "Point", "coordinates": [ -56.26366, -34.45574 ] } },
{ "type": "Feature", "properties": { "id": 164, "codigo": "82.0", "nombre": "Paso Andrés Pérez", "curso": "Río Queguay Grande", "tipo": "Hidrométrica + T", "area_km2": 3265.0, "cota_cero": 34.88, "HYRIV_ID": 61486407, "q_medio": 46.871, "q_medio_fuente": "DINAGUA", "codigo5": 17118, "dist_m": 50.913326233300133, "join_ok": true }, "geometry": { "type": "Point", "coordinates": [ -57.23739, -32.17807 ] } },
{ "type": "Feature", "properties": { "id": 165, "codigo": "83.0", "nombre": "Punta del Este", "curso": "Río de la Plata", "tipo": "Limnimétrica", "area_km2": 0.0, "cota_cero": 0.0, "HYRIV_ID": 61513428, "q_medio": 20.313, "q_medio_fuente": "DINAGUA", "codigo5": 30600, "dist_m": 9263.6413447459254, "join_ok": false }, "geometry": { "type": "Point", "coordinates": [ -54.95163, -34.96446 ] } },
{ "type": "Feature", "properties": { "id": 173, "codigo": "90.0", "nombre": "La Paloma", "curso": "Océano Atlántico", "tipo": "Limnimétrica", "area_km2": null, "cota_cero": -0.01, "HYRIV_ID": 61510938, "q_medio": 1.694, "q_medio_fuente": "DINAGUA", "codigo5": 31840, "dist_m": 8443.4039861542915, "join_ok": false }, "geometry": { "type": "Point", "coordinates": [ -54.14266, -34.65456 ] } },
{ "type": "Feature", "properties": { "id": 174, "codigo": "92.0", "nombre": "Puerto Colonia", "curso": "Río de la Plata", "tipo": "Limnimétrica + T", "area_km2": null, "cota_cero": 0.33, "HYRIV_ID": 61509850, "q_medio": 0.921, "q_medio_fuente": "DINAGUA", "codigo5": 22200, "dist_m": 2596.6715331580735, "join_ok": false }, "geometry": { "type": "Point", "coordinates": [ -57.84275, -34.47493 ] } },
{ "type": "Feature", "properties": { "id": 76, "codigo": "92.1", "nombre": "Puerto Colonia viejo", "curso": "Río de la Plata", "tipo": "Limnimétrica", "area_km2": 0.0, "cota_cero": 0.33, "HYRIV_ID": 61509850, "q_medio": 0.921, "q_medio_fuente": "DINAGUA", "codigo5": 22200, "dist_m": 3339.227045889892, "join_ok": false }, "geometry": { "type": "Point", "coordinates": [ -57.85214, -34.4694 ] } },
{ "type": "Feature", "properties": { "id": 178, "codigo": "96.0", "nombre": "Paso Borches", "curso": "Río Tacuarí", "tipo": "Hidrométrica + T", "area_km2": 1424.5, "cota_cero": 77.45, "HYRIV_ID": 61489980, "q_medio": 23.771, "q_medio_fuente": "DINAGUA", "codigo5": 41330, "dist_m": 38.219950912031777, "join_ok": true }, "geometry": { "type": "Point", "coordinates": [ -54.13139, -32.53026 ] } },
{ "type": "Feature", "properties": { "id": 179, "codigo": "97.0", "nombre": "Paso Dragón", "curso": "Río Tacuarí", "tipo": "Hidrométrica + T", "area_km2": 3540.6, "cota_cero": 4.76, "HYRIV_ID": 61492352, "q_medio": 59.528, "q_medio_fuente": "DINAGUA", "codigo5": 41716, "dist_m": 386.45983815029354, "join_ok": true }, "geometry": { "type": "Point", "coordinates": [ -53.71882, -32.76348 ] } },
{ "type": "Feature", "properties": { "id": 180, "codigo": "98.0", "nombre": "Lago Merín", "curso": "Laguna Merín", "tipo": "Limnimétrica + T + P", "area_km2": null, "cota_cero": -1.21, "HYRIV_ID": 61492394, "q_medio": 78.065, "q_medio_fuente": "DINAGUA", "codigo5": 41910, "dist_m": 3249.2211852234004, "join_ok": false }, "geometry": { "type": "Point", "coordinates": [ -53.2561, -32.73935 ] } },
{ "type": "Feature", "properties": { "id": 21, "codigo": "107.0", "nombre": "Paso de las Piedras", "curso": "Ao. Cu?apirú", "tipo": "Hidrométrica", "area_km2": 1928.1, "cota_cero": 118.95, "HYRIV_ID": 61478660, "q_medio": 34.98, "q_medio_fuente": "DINAGUA", "codigo5": 51746, "dist_m": 224.14379301673134, "join_ok": true }, "geometry": { "type": "Point", "coordinates": [ -55.58433, -31.53027 ] } },
{ "type": "Feature", "properties": { "id": 23, "codigo": "109.0", "nombre": "Vergara", "curso": "Ao. Del Parao", "tipo": "Hidrométrica", "area_km2": 1127.8, "cota_cero": 18.68, "HYRIV_ID": 61494340, "q_medio": 16.579, "q_medio_fuente": "DINAGUA", "codigo5": 44927, "dist_m": 499.48625158283932, "join_ok": true }, "geometry": { "type": "Point", "coordinates": [ -53.92695, -32.94249 ] } },
{ "type": "Feature", "properties": { "id": 24, "codigo": "110.0", "nombre": "San Luis", "curso": "Río San Luis", "tipo": "Limnimétrica + T", "area_km2": 1419.1, "cota_cero": 0.03, "HYRIV_ID": 61501020, "q_medio": 28.528, "q_medio_fuente": "DINAGUA", "codigo5": 45505, "dist_m": 473.78212882169817, "join_ok": true }, "geometry": { "type": "Point", "coordinates": [ -53.72405, -33.60154 ] } },
{ "type": "Feature", "properties": { "id": 28, "codigo": "113.0", "nombre": "Piriápolis", "curso": "Río de la Plata", "tipo": "Limnimétrica + T", "area_km2": null, "cota_cero": 0.0, "HYRIV_ID": 61512706, "q_medio": 4.732, "q_medio_fuente": "DINAGUA", "codigo5": 29514, "dist_m": 10843.713570522903, "join_ok": false }, "geometry": { "type": "Point", "coordinates": [ -55.28003, -34.87724 ] } },
{ "type": "Feature", "properties": { "id": 32, "codigo": "117.0", "nombre": "Paso Roldán", "curso": "Río Santa Lucía", "tipo": "Hidrométrica + T", "area_km2": 1077.5, "cota_cero": 74.08, "HYRIV_ID": 61507827, "q_medio": 14.165, "q_medio_fuente": "DINAGUA", "codigo5": 60158, "dist_m": 5.7869006040506177, "join_ok": true }, "geometry": { "type": "Point", "coordinates": [ -55.45458, -34.26717 ] } },
{ "type": "Feature", "properties": { "id": 286, "codigo": "118.0", "nombre": "25 de Agosto - R.78", "curso": "Ao. De La Virgen", "tipo": "Limnimétrica + T", "area_km2": 510.8, "cota_cero": -100.0, "HYRIV_ID": 61509231, "q_medio": 4.957, "q_medio_fuente": "DINAGUA", "codigo5": 62520, "dist_m": 353.2648199889129, "join_ok": true }, "geometry": { "type": "Point", "coordinates": [ -56.42675, -34.40742 ] } },
{ "type": "Feature", "properties": { "id": 33, "codigo": "119.0", "nombre": "Paso de los Troncos", "curso": "Ao. Casupá", "tipo": "Hidrométrica", "area_km2": 690.0, "cota_cero": 68.53, "HYRIV_ID": 61506803, "q_medio": 9.182, "q_medio_fuente": "DINAGUA", "codigo5": 60540, "dist_m": 131.48641033847608, "join_ok": true }, "geometry": { "type": "Point", "coordinates": [ -55.57366, -34.14639 ] } },
{ "type": "Feature", "properties": { "id": 285, "codigo": "121.0", "nombre": "Ao. Del Sauce (Ruta 9 Vieja)", "curso": "Ao. Del Sauce", "tipo": "Hidrométrica", "area_km2": 94.5, "cota_cero": -100.0, "HYRIV_ID": 61512946, "q_medio": 1.621, "q_medio_fuente": "DINAGUA", "codigo5": 29520, "dist_m": 109.38055604466652, "join_ok": true }, "geometry": { "type": "Point", "coordinates": [ -55.08029, -34.74016 ] } },
{ "type": "Feature", "properties": { "id": 36, "codigo": "122.1", "nombre": "Tacuarembó (Pte. R-5)", "curso": "Ao. Tacuarembó Chico", "tipo": "Hidrométrica", "area_km2": 672.3, "cota_cero": 120.96, "HYRIV_ID": 61480770, "q_medio": 11.349, "q_medio_fuente": "DINAGUA", "codigo5": 52028, "dist_m": 143.08376366569041, "join_ok": true }, "geometry": { "type": "Point", "coordinates": [ -55.96394, -31.70923 ] } },
{ "type": "Feature", "properties": { "id": 37, "codigo": "123.0", "nombre": "Paso Baltasar", "curso": "Ao. Tres Cruces", "tipo": "Hidrométrica + T", "area_km2": 916.0, "cota_cero": 119.55, "HYRIV_ID": 61481265, "q_medio": 15.434, "q_medio_fuente": "DINAGUA", "codigo5": 52427, "dist_m": 580.01837205848722, "join_ok": true }, "geometry": { "type": "Point", "coordinates": [ -55.77118, -31.72834 ] } },
{ "type": "Feature", "properties": { "id": 1937, "codigo": "125.1", "nombre": "Durazno (Pte. Carretero viejo)", "curso": "Río Yí", "tipo": "Hidrométrica", "area_km2": 8874.5, "cota_cero": 61.97, "HYRIV_ID": 61498559, "q_medio": 120.663, "q_medio_fuente": "DINAGUA", "codigo5": 56632, "dist_m": 243.23891757269854, "join_ok": true }, "geometry": { "type": "Point", "coordinates": [ -56.52602, -33.35866 ] } },
{ "type": "Feature", "properties": { "id": 251, "codigo": "125.2", "nombre": "Durazno (Ruta 5)", "curso": "Río Yí", "tipo": "Limnimétrica + T", "area_km2": 8870.5, "cota_cero": 61.62, "HYRIV_ID": 61498559, "q_medio": 120.663, "q_medio_fuente": "DINAGUA", "codigo5": 56632, "dist_m": 464.81972710276597, "join_ok": true }, "geometry": { "type": "Point", "coordinates": [ -56.51228, -33.37341 ] } },
{ "type": "Feature", "properties": { "id": 43, "codigo": "128.0", "nombre": "Paso del Avestruz", "curso": "Ao. Del Aiguá", "tipo": "Hidrométrica + T", "area_km2": 2748.9, "cota_cero": 38.25, "HYRIV_ID": 61503853, "q_medio": 39.476, "q_medio_fuente": "DINAGUA", "codigo5": 44560, "dist_m": 12.69361908022027, "join_ok": true }, "geometry": { "type": "Point", "coordinates": [ -54.43616, -33.86503 ] } },
{ "type": "Feature", "properties": { "id": 45, "codigo": "130.0", "nombre": "Juan Lacaze", "curso": "Río de la Plata", "tipo": "Limnimétrica + T", "area_km2": 0.0, "cota_cero": -0.23, "HYRIV_ID": 61509440, "q_medio": 1.942, "q_medio_fuente": "DINAGUA", "codigo5": 22600, "dist_m": 3416.4947818126257, "join_ok": false }, "geometry": { "type": "Point", "coordinates": [ -57.44427, -34.44158 ] } },
{ "type": "Feature", "properties": { "id": 47, "codigo": "133.0", "nombre": "Santa Lucia R-11", "curso": "Río Santa Lucía", "tipo": "Hidrométrica + T", "area_km2": 8370.7, "cota_cero": 2.27, "HYRIV_ID": 61510061, "q_medio": 108.264, "q_medio_fuente": "DINAGUA", "codigo5": 62530, "dist_m": 693.23080026112598, "join_ok": true }, "geometry": { "type": "Point", "coordinates": [ -56.40119, -34.44966 ] } },
{ "type": "Feature", "properties": { "id": 55, "codigo": "139.0", "nombre": "Las Brujas", "curso": "Río Santa Lucía", "tipo": "Limnimétrica", "area_km2": 13096.8, "cota_cero": 0.53, "HYRIV_ID": 61512204, "q_medio": 158.7, "q_medio_fuente": "DINAGUA", "codigo5": 66110, "dist_m": 1771.3475967799495, "join_ok": false }, "geometry": { "type": "Point", "coordinates": [ -56.40405, -34.69588 ] } },
{ "type": "Feature", "properties": { "id": 56, "codigo": "140.0", "nombre": "Dayman Pte. R-3", "curso": "Río Daymán", "tipo": "Hidrométrica + T", "area_km2": 3192.6, "cota_cero": 9.51, "HYRIV_ID": 61477611, "q_medio": 49.301, "q_medio_fuente": "DINAGUA", "codigo5": 15850, "dist_m": 157.3997290992879, "join_ok": true }, "geometry": { "type": "Point", "coordinates": [ -57.90291, -31.459 ] } },
{ "type": "Feature", "properties": { "id": 57, "codigo": "141.0", "nombre": "Queguay Pte. R-3", "curso": "Río Queguay Grande", "tipo": "Hidrométrica + T", "area_km2": 7853.3, "cota_cero": 5.37, "HYRIV_ID": 61485648, "q_medio": 113.18, "q_medio_fuente": "DINAGUA", "codigo5": 17830, "dist_m": 139.63032662511571, "join_ok": true }, "geometry": { "type": "Point", "coordinates": [ -57.93868, -32.13565 ] } },
{ "type": "Feature", "properties": { "id": 1936, "codigo": "142.0", "nombre": "Po. de las Piedras (Puente R3)", "curso": "Ao. Don Esteban Grande", "tipo": "Hidrométrica", "area_km2": 787.9, "cota_cero": 28.92, "HYRIV_ID": 61493192, "q_medio": 8.516, "q_medio_fuente": "DINAGUA", "codigo5": 58207, "dist_m": 2.8055363634995376, "join_ok": true }, "geometry": { "type": "Point", "coordinates": [ -57.51702, -32.83588 ] } },
{ "type": "Feature", "properties": { "id": 1932, "codigo": "151.1", "nombre": "Presa Paso Severino", "curso": "Río Santa Lucía Chico", "tipo": "Limnimétrica", "area_km2": 2489.5, "cota_cero": 0.0, "HYRIV_ID": 61507938, "q_medio": 32.122, "q_medio_fuente": "DINAGUA", "codigo5": 61800, "dist_m": 38.913984841683146, "join_ok": true }, "geometry": { "type": "Point", "coordinates": [ -56.30658, -34.26574 ] } },
{ "type": "Feature", "properties": { "id": 75, "codigo": "155.0", "nombre": "Javier de Viana", "curso": "Ao. Tres Cruces Grande", "tipo": "Hidrométrica", "area_km2": 572.2, "cota_cero": 86.63, "HYRIV_ID": 61464091, "q_medio": 11.335, "q_medio_fuente": "DINAGUA", "codigo5": 10720, "dist_m": 384.83091166069062, "join_ok": true }, "geometry": { "type": "Point", "coordinates": [ -56.8035, -30.43882 ] } },
{ "type": "Feature", "properties": { "id": 100, "codigo": "173.0", "nombre": "Arapey Ch. Pte R-4", "curso": "Río Arapey Chico", "tipo": "Hidrométrica", "area_km2": 517.6, "cota_cero": 99.57, "HYRIV_ID": 61472196, "q_medio": 8.876, "q_medio_fuente": "DINAGUA", "codigo5": 12007, "dist_m": 59.170325245947069, "join_ok": true }, "geometry": { "type": "Point", "coordinates": [ -56.89721, -31.03608 ] } },
{ "type": "Feature", "properties": { "id": 1902, "codigo": "174.0", "nombre": "Maldonado Pte. R-9", "curso": "Ao. Maldonado", "tipo": "Hidrométrica + T", "area_km2": 364.0, "cota_cero": 9.29, "HYRIV_ID": 61512368, "q_medio": 5.195, "q_medio_fuente": "DINAGUA", "codigo5": 30507, "dist_m": 33.8580870173816, "join_ok": true }, "geometry": { "type": "Point", "coordinates": [ -54.95316, -34.7476 ] } },
{ "type": "Feature", "properties": { "id": 111, "codigo": "182.0", "nombre": "Dársena Higueritas", "curso": "Río Uruguay", "tipo": "Limnimétrica", "area_km2": 353000.0, "cota_cero": 0.71, "HYRIV_ID": 61504622, "q_medio": 2.901, "q_medio_fuente": "DINAGUA", "codigo5": 20408, "dist_m": 9521.4599026215055, "join_ok": false }, "geometry": { "type": "Point", "coordinates": [ -58.41761, -33.87306 ] } },
{ "type": "Feature", "properties": { "id": 114, "codigo": "185.0", "nombre": "Laguna Castillos", "curso": "Laguna De Castillos", "tipo": "Limnimétrica + T", "area_km2": 1275.1, "cota_cero": -1.17, "HYRIV_ID": 61507984, "q_medio": 3.758, "q_medio_fuente": "DINAGUA", "codigo5": 32530, "dist_m": 58.089730080098377, "join_ok": false }, "geometry": { "type": "Point", "coordinates": [ -53.90307, -34.28446 ] } },
{ "type": "Feature", "properties": { "id": 115, "codigo": "188.0", "nombre": "Embarcadero Riachuelo", "curso": "Ao. Riachuelo", "tipo": "Limnimétrica", "area_km2": 160.6, "cota_cero": 0.37, "HYRIV_ID": 61509671, "q_medio": 1.106, "q_medio_fuente": "DINAGUA", "codigo5": 22300, "dist_m": 224.81388422398584, "join_ok": true }, "geometry": { "type": "Point", "coordinates": [ -57.72776, -34.44542 ] } },
{ "type": "Feature", "properties": { "id": 118, "codigo": "191.0", "nombre": "Barra del Chuy", "curso": "Ao. Chuy", "tipo": "Limnimétrica + T", "area_km2": 94.6, "cota_cero": -0.97, "HYRIV_ID": 61502587, "q_medio": 10.137, "q_medio_fuente": "HydroRIVERS", "codigo5": 33810, "dist_m": 135.12898106252581, "join_ok": false }, "geometry": { "type": "Point", "coordinates": [ -53.38297, -33.74851 ] } },
{ "type": "Feature", "properties": { "id": 122, "codigo": "197.0", "nombre": "Peaje Pando", "curso": "Ao. Pando", "tipo": "Limnimétrica", "area_km2": 769.9, "cota_cero": -1.03, "HYRIV_ID": 61512594, "q_medio": 7.966, "q_medio_fuente": "DINAGUA", "codigo5": 26820, "dist_m": 166.2673160055904, "join_ok": true }, "geometry": { "type": "Point", "coordinates": [ -55.89105, -34.78701 ] } },
{ "type": "Feature", "properties": { "id": 124, "codigo": "199.0", "nombre": "Peaje Solís", "curso": "Ao. Solís Grande", "tipo": "Limnimétrica", "area_km2": 1334.6, "cota_cero": -1.36, "HYRIV_ID": 61512558, "q_medio": 18.371, "q_medio_fuente": "DINAGUA", "codigo5": 28910, "dist_m": 90.97715981591341, "join_ok": true }, "geometry": { "type": "Point", "coordinates": [ -55.39687, -34.77983 ] } },
{ "type": "Feature", "properties": { "id": 1941, "codigo": "200.0", "nombre": "Arequita", "curso": "Río Santa Lucía", "tipo": "Auxiliar", "area_km2": null, "cota_cero": null, "HYRIV_ID": 61508075, "q_medio": 3.568, "q_medio_fuente": "DINAGUA", "codigo5": 60000, "dist_m": 328.80366971072709, "join_ok": false }, "geometry": { "type": "Point", "coordinates": [ -55.28361, -34.28408 ] } },
{ "type": "Feature", "properties": { "id": 291, "codigo": "103017.0", "nombre": "Barrio Independencia", "curso": "Acuífero Guaraní", "tipo": "Piezomética (Proyecto Guaraní)", "area_km2": null, "cota_cero": null, "HYRIV_ID": 61463456, "q_medio": 101.809, "q_medio_fuente": "HydroRIVERS", "codigo5": 10310, "dist_m": 2334.3701285894481, "join_ok": false }, "geometry": { "type": "Point", "coordinates": [ -56.47577, -30.41661 ] } },
{ "type": "Feature", "properties": { "id": 297, "codigo": "512101.0", "nombre": "Oficina OSE Tranqueras", "curso": "", "tipo": "Piezométrica", "area_km2": null, "cota_cero": null, "HYRIV_ID": 61474324, "q_medio": 9.476, "q_medio_fuente": "DINAGUA", "codigo5": 51210, "dist_m": 859.54060947170387, "join_ok": false }, "geometry": { "type": "Point", "coordinates": [ -55.76806, -31.18972 ] } },
{ "type": "Feature", "properties": { "id": 289, "codigo": "517007.0", "nombre": "James Bond", "curso": "Acuífero Guaraní", "tipo": "Piezomética (Proyecto Guaraní)", "area_km2": null, "cota_cero": -100.0, "HYRIV_ID": 61470411, "q_medio": 1.884, "q_medio_fuente": "DINAGUA", "codigo5": 51700, "dist_m": 5205.2305899862495, "join_ok": false }, "geometry": { "type": "Point", "coordinates": [ -55.60521, -30.87082 ] } },
{ "type": "Feature", "properties": { "id": 287, "codigo": "517040.0", "nombre": "Depuradora Presidente Viera", "curso": "", "tipo": "Piezométrica", "area_km2": null, "cota_cero": -100.0, "HYRIV_ID": 61471119, "q_medio": 2.637, "q_medio_fuente": "DINAGUA", "codigo5": 51700, "dist_m": 506.2424021146727, "join_ok": false }, "geometry": { "type": "Point", "coordinates": [ -55.54824, -30.90598 ] } },
{ "type": "Feature", "properties": { "id": 1931, "codigo": "517150.8", "nombre": "Policlínica La Pedrera", "curso": "", "tipo": "Piezométrica", "area_km2": null, "cota_cero": null, "HYRIV_ID": 61471119, "q_medio": 2.637, "q_medio_fuente": "DINAGUA", "codigo5": 51700, "dist_m": 1361.5885732306062, "join_ok": false }, "geometry": { "type": "Point", "coordinates": [ -55.54387, -30.93378 ] } },
{ "type": "Feature", "properties": { "id": 14750, "codigo": "11.0", "nombre": "Paso de la Laguna", "curso": "Río Olimar Grande", "tipo": "Limnimétrica", "area_km2": 4909.2, "cota_cero": 13.89, "HYRIV_ID": 61497602, "q_medio": 85.635, "q_medio_fuente": "DINAGUA", "codigo5": 43774, "dist_m": 37.841507662752065, "join_ok": true }, "geometry": { "type": "Point", "coordinates": [ -54.1783, -33.27777 ] } },
{ "type": "Feature", "properties": { "id": 14751, "codigo": "12.0", "nombre": "Villa Passano", "curso": "Río Olimar Grande", "tipo": "Limnimétrica", "area_km2": 5304.8, "cota_cero": 0.99, "HYRIV_ID": 61497547, "q_medio": 93.062, "q_medio_fuente": "DINAGUA", "codigo5": 43810, "dist_m": 245.47308434150131, "join_ok": true }, "geometry": { "type": "Point", "coordinates": [ -53.88765, -33.27879 ] } },
{ "type": "Feature", "properties": { "id": 14772, "codigo": "20.0", "nombre": "San José Pte. R-11", "curso": "Río San José", "tipo": "Limnimétrica", "area_km2": 2828.8, "cota_cero": 17.84, "HYRIV_ID": 61508611, "q_medio": 31.412, "q_medio_fuente": "DINAGUA", "codigo5": 65630, "dist_m": 86.599019782726216, "join_ok": true }, "geometry": { "type": "Point", "coordinates": [ -56.69153, -34.34388 ] } },
{ "type": "Feature", "properties": { "id": 14752, "codigo": "25.0", "nombre": "Paso Barrancas", "curso": "Río San Luis", "tipo": "Limnimétrica", "area_km2": 1319.5, "cota_cero": -0.07, "HYRIV_ID": 61501269, "q_medio": 27.605, "q_medio_fuente": "DINAGUA", "codigo5": 45505, "dist_m": 270.45916332215506, "join_ok": true }, "geometry": { "type": "Point", "coordinates": [ -53.80674, -33.63137 ] } },
{ "type": "Feature", "properties": { "id": 14683, "codigo": "26.0", "nombre": "Sub-receptoria", "curso": "Río San Luis", "tipo": "Limnimétrica", "area_km2": 2152.9, "cota_cero": -0.69, "HYRIV_ID": 61500503, "q_medio": 34.697, "q_medio_fuente": "DINAGUA", "codigo5": 45570, "dist_m": 1448.0791533959391, "join_ok": true }, "geometry": { "type": "Point", "coordinates": [ -53.60425, -33.564 ] } },
{ "type": "Feature", "properties": { "id": 15938, "codigo": "34.0", "nombre": "Ao. Mansavillagra - Puente R-6", "curso": "Ao. Mansavillagra", "tipo": "Hidrométrica", "area_km2": 1875.9, "cota_cero": null, "HYRIV_ID": 61500460, "q_medio": 14.538, "q_medio_fuente": "DINAGUA", "codigo5": 56340, "dist_m": 147.79086105153465, "join_ok": true }, "geometry": { "type": "Point", "coordinates": [ -55.72138, -33.54738 ] } },
{ "type": "Feature", "properties": { "id": 15935, "codigo": "35.0", "nombre": "Ao. Maciel - Puente R-14", "curso": "Ao. Maciel", "tipo": "Hidrométrica", "area_km2": 1559.0, "cota_cero": null, "HYRIV_ID": 61499306, "q_medio": 1.821, "q_medio_fuente": "DINAGUA", "codigo5": 56750, "dist_m": 28.460671271133855, "join_ok": false }, "geometry": { "type": "Point", "coordinates": [ -56.61844, -33.39543 ] } },
{ "type": "Feature", "properties": { "id": 15936, "codigo": "37.0", "nombre": "Ao. del Hospital", "curso": "Ao. Del Hospital", "tipo": "Limnimétrica + T", "area_km2": 568.7, "cota_cero": null, "HYRIV_ID": 61479948, "q_medio": 11.262, "q_medio_fuente": "DINAGUA", "codigo5": 50220, "dist_m": 1066.8039046594529, "join_ok": true }, "geometry": { "type": "Point", "coordinates": [ -54.61764, -31.64617 ] } },
{ "type": "Feature", "properties": { "id": 15932, "codigo": "57.1", "nombre": "Sarandí del Yí", "curso": "Río Yí", "tipo": "Hidrométrica", "area_km2": 1380.0, "cota_cero": 117.74, "HYRIV_ID": 61498505, "q_medio": 18.797, "q_medio_fuente": "DINAGUA", "codigo5": 56060, "dist_m": 154.99205566400255, "join_ok": true }, "geometry": { "type": "Point", "coordinates": [ -55.61817, -33.34418 ] } },
{ "type": "Feature", "properties": { "id": 15934, "codigo": "57.2", "nombre": "Sarandí del Yí (R-14 Nueva)", "curso": "Río Yí", "tipo": "Hidrométrica", "area_km2": 1378.2, "cota_cero": null, "HYRIV_ID": 61498505, "q_medio": 18.797, "q_medio_fuente": "DINAGUA", "codigo5": 56060, "dist_m": 66.31784521801265, "join_ok": true }, "geometry": { "type": "Point", "coordinates": [ -55.61529, -33.33981 ] } },
{ "type": "Feature", "properties": { "id": 16233, "codigo": "66.0", "nombre": "Paso de las Toscas", "curso": "Ao. Caraguatá", "tipo": "Hidrométrica + T", "area_km2": 971.0, "cota_cero": 102.41, "HYRIV_ID": 61486159, "q_medio": 16.964, "q_medio_fuente": "DINAGUA", "codigo5": 53825, "dist_m": 707.49601882815296, "join_ok": true }, "geometry": { "type": "Point", "coordinates": [ -55.02389, -32.1582 ] } },
{ "type": "Feature", "properties": { "id": 16231, "codigo": "106.0", "nombre": "Paso Tranqueras", "curso": "Río Tacuarembó", "tipo": "Hidrométrica + T", "area_km2": 496.2, "cota_cero": 137.91, "HYRIV_ID": 61474324, "q_medio": 9.476, "q_medio_fuente": "DINAGUA", "codigo5": 51210, "dist_m": 629.91534898524094, "join_ok": true }, "geometry": { "type": "Point", "coordinates": [ -55.78369, -31.18469 ] } },
{ "type": "Feature", "properties": { "id": 16158, "codigo": "163.1", "nombre": "Ao. Bequeló R-14 (Puente Nuevo)", "curso": "Ao. Bequeló", "tipo": "Hidrométrica", "area_km2": 1145.0, "cota_cero": -100.0, "HYRIV_ID": 61497256, "q_medio": 12.418, "q_medio_fuente": "DINAGUA", "codigo5": 58826, "dist_m": 117.66774713565501, "join_ok": true }, "geometry": { "type": "Point", "coordinates": [ -57.94084, -33.24021 ] } },
{ "type": "Feature", "properties": { "id": 16232, "codigo": "167.0", "nombre": "Fraile Muerto (Puente R.7)", "curso": "Ao. Fraile Muerto", "tipo": "Hidrométrica + T", "area_km2": 311.8, "cota_cero": 120.97, "HYRIV_ID": 61490071, "q_medio": 5.783, "q_medio_fuente": "DINAGUA", "codigo5": 50603, "dist_m": 80.215942636949251, "join_ok": true }, "geometry": { "type": "Point", "coordinates": [ -54.52988, -32.51891 ] } },
{ "type": "Feature", "properties": { "id": 15328, "codigo": "102300.0", "nombre": "Guayubira (Ar2)", "curso": "Acuífero Guaraní", "tipo": "Piezomética (Proyecto Guaraní)", "area_km2": null, "cota_cero": null, "HYRIV_ID": 61464650, "q_medio": 86.607, "q_medio_fuente": "HydroRIVERS", "codigo5": 10230, "dist_m": 1147.8561703259704, "join_ok": false }, "geometry": { "type": "Point", "coordinates": [ -56.40762, -30.48259 ] } },
{ "type": "Feature", "properties": { "id": 15329, "codigo": "148100.0", "nombre": "Club Remeros Salto (Sa1)", "curso": "", "tipo": "Piezomética (Proyecto Guaraní)", "area_km2": null, "cota_cero": -100.0, "HYRIV_ID": 61476677, "q_medio": 5933.576, "q_medio_fuente": "HydroRIVERS", "codigo5": 14810, "dist_m": 579.02070153220518, "join_ok": false }, "geometry": { "type": "Point", "coordinates": [ -57.976, -31.37953 ] } },
{ "type": "Feature", "properties": { "id": 15330, "codigo": "517000.0", "nombre": "Polo de Desarrollo Agropecuario (Ri2)", "curso": "Acuífero Guaraní", "tipo": "Piezomética (Proyecto Guaraní)", "area_km2": null, "cota_cero": null, "HYRIV_ID": 61470411, "q_medio": 1.884, "q_medio_fuente": "DINAGUA", "codigo5": 51700, "dist_m": 4227.5496617901672, "join_ok": false }, "geometry": { "type": "Point", "coordinates": [ -55.59299, -30.87286 ] } },
{ "type": "Feature", "properties": { "id": 15331, "codigo": "517063.1", "nombre": "OSE (gemelo de10.4.063) (Ri3)", "curso": "", "tipo": "Piezomética (Proyecto Guaraní)", "area_km2": null, "cota_cero": null, "HYRIV_ID": 61470411, "q_medio": 1.884, "q_medio_fuente": "DINAGUA", "codigo5": 51700, "dist_m": 3316.8326023761947, "join_ok": false }, "geometry": { "type": "Point", "coordinates": [ -55.58384, -30.87719 ] } },
{ "type": "Feature", "properties": { "id": 17152, "codigo": "6.1", "nombre": "San Gregorio de Polanco (lago)", "curso": "Río Negro", "tipo": "Limnimétrica", "area_km2": 34992.2, "cota_cero": 70.09, "HYRIV_ID": 61490880, "q_medio": 546.834, "q_medio_fuente": "DINAGUA", "codigo5": 54430, "dist_m": 252.8860072245044, "join_ok": true }, "geometry": { "type": "Point", "coordinates": [ -55.8289, -32.62006 ] } },
{ "type": "Feature", "properties": { "id": 17215, "codigo": "59.1", "nombre": "Paso Pache (R.5 Nueva)", "curso": "Río Santa Lucía", "tipo": "Hidrométrica + T", "area_km2": 4915.5, "cota_cero": 14.76, "HYRIV_ID": 61508831, "q_medio": 64.684, "q_medio_fuente": "DINAGUA", "codigo5": 60830, "dist_m": 5.542215358204202, "join_ok": true }, "geometry": { "type": "Point", "coordinates": [ -56.24917, -34.36463 ] } },
{ "type": "Feature", "properties": { "id": 17132, "codigo": "115.0", "nombre": "Picada de Varela", "curso": "Río San José", "tipo": "Hidrométrica + T", "area_km2": 2344.8, "cota_cero": 19.79, "HYRIV_ID": 61508371, "q_medio": 26.197, "q_medio_fuente": "DINAGUA", "codigo5": 65510, "dist_m": 465.88039464713489, "join_ok": true }, "geometry": { "type": "Point", "coordinates": [ -56.70884, -34.31878 ] } },
{ "type": "Feature", "properties": { "id": -1, "codigo": "SG", "nombre": "Represa Salto Grande", "curso": "Río Uruguay", "tipo": "Represa", "area_km2": 244000.0, "cota_cero": null, "HYRIV_ID": 61475536, "q_medio": 5924.186, "q_medio_fuente": "HydroRIVERS", "codigo5": 14660, "dist_m": 414.11838362323846, "join_ok": true }, "geometry": { "type": "Point", "coordinates": [ -57.9394, -31.2758 ] } }
]
}
