{
"type": "FeatureCollection",
"name": "vecinos",
"xy_coordinate_resolution": 0.001,
"features": [
{ "type": "Feature", "properties": { "pais": "Argentina" }, "geometry": { "type": "Polygon", "coordinates": [ [ [ -57.57, -25.547 ], [ -57.563, -25.5 ], [ -63.5, -25.5 ], [ -63.5, -38.5 ], [ -58.331, -38.493 ], [ -58.156, -38.43 ], [ -57.862, -38.294 ], [ -57.594, -38.153 ], [ -57.558, -38.121 ], [ -57.533, -38.073 ], [ -57.542, -37.999 ], [ -57.529, -37.914 ], [ -57.487, -37.832 ], [ -57.309, -37.645 ], [ -57.166, -37.536 ], [ -57.056, -37.413 ], [ -56.889, -37.162 ], [ -56.669, -36.894 ], [ -56.672, -36.601 ], [ -56.7, -36.521 ], [ -56.698, -36.396 ], [ -56.741, -36.317 ], [ -56.776, -36.306 ], [ -56.768, -36.344 ], [ -56.857, -36.344 ], [ -56.939, -36.385 ], [ -56.938, -36.351 ], [ -57.108, -36.282 ], [ -57.248, -36.17 ], [ -57.268, -36.128 ], [ -57.309, -36.1 ], [ -57.371, -35.977 ], [ -57.393, -35.863 ], [ -57.353, -35.728 ], [ -57.145, -35.484 ], [ -57.128, -35.441 ], [ -57.202, -35.31 ], [ -57.35, -35.15 ], [ -57.522, -35.013 ], [ -57.759, -34.91 ], [ -57.871, -34.83 ], [ -57.965, -34.825 ], [ -58.0, -34.787 ], [ -58.155, -34.75 ], [ -58.315, -34.657 ], [ -58.379, -34.573 ], [ -58.474, -34.522 ], [ -58.477, -34.483 ], [ -58.511, -34.436 ], [ -58.455, -34.366 ], [ -58.57, -34.288 ], [ -58.543, -34.268 ], [ -58.46, -34.273 ], [ -58.379, -34.188 ], [ -58.392, -34.154 ], [ -58.388, -34.046 ], [ -58.447, -34.011 ], [ -58.439, -33.98 ], [ -58.461, -33.859 ], [ -58.524, -33.778 ], [ -58.549, -33.705 ], [ -58.522, -33.449 ], [ -58.488, -33.37 ], [ -58.412, -33.298 ], [ -58.433, -33.232 ], [ -58.413, -33.119 ], [ -58.43, -33.103 ], [ -58.383, -33.075 ], [ -58.204, -33.092 ], [ -58.147, -33.05 ], [ -58.159, -32.98 ], [ -58.138, -32.9 ], [ -58.179, -32.828 ], [ -58.212, -32.657 ], [ -58.22, -32.49 ], [ -58.102, -32.311 ], [ -58.097, -32.281 ], [ -58.187, -32.153 ], [ -58.159, -32.102 ], [ -58.145, -32.018 ], [ -58.159, -31.944 ], [ -58.203, -31.893 ], [ -58.153, -31.836 ], [ -58.049, -31.797 ], [ -57.98, -31.599 ], [ -57.987, -31.554 ], [ -58.075, -31.475 ], [ -58.063, -31.444 ], [ -57.99, -31.399 ], [ -57.966, -31.315 ], [ -57.905, -31.241 ], [ -57.912, -31.171 ], [ -57.855, -31.059 ], [ -57.863, -31.012 ], [ -57.912, -30.947 ], [ -57.904, -30.93 ], [ -57.807, -30.908 ], [ -57.796, -30.868 ], [ -57.818, -30.712 ], [ -57.886, -30.59 ], [ -57.89, -30.551 ], [ -57.85, -30.485 ], [ -57.653, -30.329 ], [ -57.624, -30.258 ], [ -57.634, -30.184 ], [ -57.569, -30.177 ], [ -57.506, -30.144 ], [ -57.411, -30.04 ], [ -57.325, -29.981 ], [ -57.309, -29.849 ], [ -57.292, -29.815 ], [ -57.22, -29.778 ], [ -57.133, -29.772 ], [ -57.094, -29.752 ], [ -57.021, -29.683 ], [ -56.952, -29.586 ], [ -56.819, -29.475 ], [ -56.77, -29.379 ], [ -56.689, -29.33 ], [ -56.65, -29.251 ], [ -56.651, -29.209 ], [ -56.617, -29.161 ], [ -56.548, -29.11 ], [ -56.428, -29.07 ], [ -56.392, -28.952 ], [ -56.323, -28.916 ], [ -56.301, -28.881 ], [ -56.286, -28.78 ], [ -56.185, -28.744 ], [ -56.103, -28.648 ], [ -56.041, -28.609 ], [ -56.022, -28.586 ], [ -56.012, -28.497 ], [ -55.902, -28.465 ], [ -55.906, -28.378 ], [ -55.842, -28.346 ], [ -55.735, -28.366 ], [ -55.715, -28.404 ], [ -55.694, -28.4 ], [ -55.664, -28.327 ], [ -55.687, -28.29 ], [ -55.767, -28.258 ], [ -55.773, -28.232 ], [ -55.684, -28.196 ], [ -55.605, -28.117 ], [ -55.582, -28.121 ], [ -55.577, -28.144 ], [ -55.553, -28.146 ], [ -55.506, -28.079 ], [ -55.441, -28.079 ], [ -55.383, -28.014 ], [ -55.381, -27.978 ], [ -55.338, -27.963 ], [ -55.314, -27.915 ], [ -55.26, -27.919 ], [ -55.178, -27.854 ], [ -55.119, -27.881 ], [ -55.1, -27.844 ], [ -55.03, -27.851 ], [ -55.081, -27.778 ], [ -54.985, -27.785 ], [ -54.913, -27.737 ], [ -54.898, -27.624 ], [ -54.845, -27.612 ], [ -54.828, -27.545 ], [ -54.805, -27.526 ], [ -54.792, -27.523 ], [ -54.794, -27.549 ], [ -54.774, -27.564 ], [ -54.69, -27.551 ], [ -54.666, -27.504 ], [ -54.651, -27.526 ], [ -54.626, -27.515 ], [ -54.589, -27.453 ], [ -54.543, -27.487 ], [ -54.448, -27.459 ], [ -54.465, -27.423 ], [ -54.445, -27.409 ], [ -54.389, -27.411 ], [ -54.372, -27.454 ], [ -54.348, -27.436 ], [ -54.348, -27.394 ], [ -54.307, -27.429 ], [ -54.287, -27.428 ], [ -54.261, -27.389 ], [ -54.232, -27.381 ], [ -54.232, -27.352 ], [ -54.177, -27.243 ], [ -54.156, -27.258 ], [ -54.158, -27.279 ], [ -54.092, -27.285 ], [ -54.005, -27.188 ], [ -53.962, -27.191 ], [ -53.964, -27.154 ], [ -53.909, -27.168 ], [ -53.882, -27.12 ], [ -53.842, -27.164 ], [ -53.83, -27.157 ], [ -53.801, -27.039 ], [ -53.768, -27.024 ], [ -53.713, -26.905 ], [ -53.734, -26.777 ], [ -53.753, -26.773 ], [ -53.748, -26.739 ], [ -53.774, -26.714 ], [ -53.74, -26.676 ], [ -53.742, -26.601 ], [ -53.727, -26.549 ], [ -53.737, -26.525 ], [ -53.713, -26.501 ], [ -53.724, -26.376 ], [ -53.662, -26.26 ], [ -53.667, -26.219 ], [ -53.733, -26.126 ], [ -53.765, -26.028 ], [ -53.833, -25.962 ], [ -53.84, -25.791 ], [ -53.883, -25.736 ], [ -53.876, -25.698 ], [ -53.91, -25.629 ], [ -53.968, -25.653 ], [ -53.997, -25.575 ], [ -54.03, -25.562 ], [ -54.055, -25.571 ], [ -54.083, -25.55 ], [ -54.086, -25.591 ], [ -54.099, -25.597 ], [ -54.126, -25.552 ], [ -54.108, -25.5 ], [ -54.127, -25.5 ], [ -54.165, -25.534 ], [ -54.215, -25.531 ], [ -54.19, -25.581 ], [ -54.244, -25.578 ], [ -54.256, -25.599 ], [ -54.299, -25.553 ], [ -54.35, -25.582 ], [ -54.395, -25.581 ], [ -54.405, -25.62 ], [ -54.437, -25.645 ], [ -54.433, -25.677 ], [ -54.447, -25.689 ], [ -54.473, -25.626 ], [ -54.532, -25.611 ], [ -54.546, -25.575 ], [ -54.6, -25.575 ], [ -54.583, -25.645 ], [ -54.643, -25.662 ], [ -54.617, -25.774 ], [ -54.588, -25.811 ], [ -54.615, -25.883 ], [ -54.606, -25.947 ], [ -54.662, -25.98 ], [ -54.643, -26.063 ], [ -54.664, -26.149 ], [ -54.638, -26.197 ], [ -54.664, -26.236 ], [ -54.664, -26.308 ], [ -54.698, -26.428 ], [ -54.79, -26.529 ], [ -54.78, -26.575 ], [ -54.793, -26.645 ], [ -54.817, -26.666 ], [ -54.879, -26.654 ], [ -54.92, -26.674 ], [ -54.975, -26.788 ], [ -55.061, -26.805 ], [ -55.126, -26.864 ], [ -55.119, -26.92 ], [ -55.138, -26.954 ], [ -55.201, -26.955 ], [ -55.281, -26.934 ], [ -55.414, -26.98 ], [ -55.443, -27.016 ], [ -55.462, -27.098 ], [ -55.534, -27.099 ], [ -55.555, -27.154 ], [ -55.598, -27.168 ], [ -55.569, -27.246 ], [ -55.591, -27.328 ], [ -55.682, -27.379 ], [ -55.755, -27.444 ], [ -55.854, -27.401 ], [ -55.893, -27.335 ], [ -55.985, -27.332 ], [ -56.125, -27.299 ], [ -56.205, -27.362 ], [ -56.28, -27.39 ], [ -56.297, -27.481 ], [ -56.368, -27.581 ], [ -56.4, -27.587 ], [ -56.461, -27.554 ], [ -56.546, -27.455 ], [ -56.613, -27.446 ], [ -56.771, -27.507 ], [ -56.904, -27.419 ], [ -56.977, -27.435 ], [ -57.076, -27.484 ], [ -57.18, -27.487 ], [ -57.335, -27.409 ], [ -57.513, -27.414 ], [ -57.709, -27.33 ], [ -58.022, -27.26 ], [ -58.129, -27.27 ], [ -58.238, -27.257 ], [ -58.511, -27.278 ], [ -58.604, -27.316 ], [ -58.602, -27.246 ], [ -58.652, -27.198 ], [ -58.653, -27.156 ], [ -58.616, -27.124 ], [ -58.565, -27.116 ], [ -58.545, -27.041 ], [ -58.512, -27.06 ], [ -58.467, -26.976 ], [ -58.482, -26.964 ], [ -58.475, -26.938 ], [ -58.316, -26.874 ], [ -58.352, -26.831 ], [ -58.34, -26.809 ], [ -58.289, -26.811 ], [ -58.275, -26.798 ], [ -58.288, -26.769 ], [ -58.248, -26.758 ], [ -58.236, -26.65 ], [ -58.179, -26.651 ], [ -58.192, -26.613 ], [ -58.165, -26.592 ], [ -58.217, -26.528 ], [ -58.185, -26.452 ], [ -58.213, -26.419 ], [ -58.168, -26.335 ], [ -58.17, -26.27 ], [ -58.106, -26.24 ], [ -58.151, -26.181 ], [ -58.124, -26.202 ], [ -58.087, -26.127 ], [ -57.988, -26.089 ], [ -57.873, -26.01 ], [ -57.86, -25.981 ], [ -57.906, -25.969 ], [ -57.851, -25.908 ], [ -57.875, -25.876 ], [ -57.802, -25.831 ], [ -57.821, -25.778 ], [ -57.74, -25.722 ], [ -57.775, -25.702 ], [ -57.741, -25.662 ], [ -57.679, -25.647 ], [ -57.668, -25.612 ], [ -57.623, -25.615 ], [ -57.57, -25.547 ] ] ] } },
{ "type": "Feature", "properties": { "pais": "Brazil" }, "geometry": { "type": "MultiPolygon", "coordinates": [ [ [ [ -57.612, -30.183 ], [ -57.587, -30.204 ], [ -57.567, -30.256 ], [ -57.536, -30.274 ], [ -57.443, -30.269 ], [ -57.399, -30.299 ], [ -57.354, -30.272 ], [ -57.296, -30.293 ], [ -57.27, -30.275 ], [ -57.245, -30.293 ], [ -57.184, -30.268 ], [ -57.13, -30.15 ], [ -57.077, -30.106 ], [ -56.831, -30.102 ], [ -56.767, -30.161 ], [ -56.642, -30.234 ], [ -56.631, -30.285 ], [ -56.575, -30.302 ], [ -56.524, -30.357 ], [ -56.425, -30.424 ], [ -56.386, -30.476 ], [ -56.215, -30.582 ], [ -56.077, -30.752 ], [ -56.011, -30.798 ], [ -55.989, -30.856 ], [ -56.016, -30.934 ], [ -56.022, -31.067 ], [ -56.011, -31.082 ], [ -55.855, -31.075 ], [ -55.764, -31.008 ], [ -55.732, -30.945 ], [ -55.653, -30.939 ], [ -55.65, -30.861 ], [ -55.592, -30.848 ], [ -55.369, -31.037 ], [ -55.338, -31.126 ], [ -55.294, -31.154 ], [ -55.244, -31.245 ], [ -55.087, -31.327 ], [ -55.029, -31.269 ], [ -54.97, -31.341 ], [ -54.85, -31.425 ], [ -54.605, -31.46 ], [ -54.562, -31.516 ], [ -54.495, -31.566 ], [ -54.464, -31.672 ], [ -54.274, -31.823 ], [ -54.146, -31.91 ], [ -54.088, -31.878 ], [ -54.05, -31.887 ], [ -54.009, -31.927 ], [ -53.906, -31.959 ], [ -53.858, -32.021 ], [ -53.757, -32.055 ], [ -53.721, -32.162 ], [ -53.659, -32.254 ], [ -53.644, -32.356 ], [ -53.561, -32.45 ], [ -53.416, -32.564 ], [ -53.201, -32.637 ], [ -53.111, -32.722 ], [ -53.127, -32.755 ], [ -53.299, -32.889 ], [ -53.327, -32.974 ], [ -53.483, -33.067 ], [ -53.512, -33.099 ], [ -53.537, -33.171 ], [ -53.514, -33.395 ], [ -53.54, -33.649 ], [ -53.512, -33.69 ], [ -53.457, -33.688 ], [ -53.411, -33.742 ], [ -53.379, -33.741 ], [ -53.266, -33.677 ], [ -52.819, -33.323 ], [ -52.645, -33.137 ], [ -52.471, -32.801 ], [ -52.375, -32.499 ], [ -52.253, -32.282 ], [ -52.127, -32.178 ], [ -52.091, -32.166 ], [ -52.102, -32.123 ], [ -52.087, -32.067 ], [ -52.14, -32.119 ], [ -52.156, -32.123 ], [ -52.169, -32.101 ], [ -52.081, -32.032 ], [ -52.124, -32.029 ], [ -52.154, -32.065 ], [ -52.214, -32.086 ], [ -52.238, -32.081 ], [ -52.211, -32.057 ], [ -52.259, -32.054 ], [ -52.238, -31.966 ], [ -52.134, -31.931 ], [ -52.21, -31.869 ], [ -52.236, -31.88 ], [ -52.248, -31.862 ], [ -52.21, -31.8 ], [ -52.219, -31.741 ], [ -52.063, -31.665 ], [ -52.041, -31.623 ], [ -52.046, -31.608 ], [ -52.09, -31.606 ], [ -52.083, -31.559 ], [ -52.04, -31.57 ], [ -52.008, -31.646 ], [ -51.985, -31.574 ], [ -52.005, -31.54 ], [ -51.999, -31.409 ], [ -51.943, -31.359 ], [ -51.964, -31.332 ], [ -51.923, -31.307 ], [ -51.857, -31.311 ], [ -51.819, -31.272 ], [ -51.638, -31.257 ], [ -51.651, -31.205 ], [ -51.624, -31.135 ], [ -51.443, -31.081 ], [ -51.471, -31.053 ], [ -51.486, -30.967 ], [ -51.455, -30.889 ], [ -51.362, -30.879 ], [ -51.382, -30.776 ], [ -51.377, -30.642 ], [ -51.322, -30.642 ], [ -51.291, -30.74 ], [ -51.289, -30.767 ], [ -51.314, -30.773 ], [ -51.298, -30.795 ], [ -51.27, -30.782 ], [ -51.29, -30.624 ], [ -51.25, -30.462 ], [ -51.2, -30.4 ], [ -51.115, -30.401 ], [ -51.091, -30.352 ], [ -51.188, -30.36 ], [ -51.204, -30.285 ], [ -51.238, -30.313 ], [ -51.292, -30.272 ], [ -51.265, -30.245 ], [ -51.282, -30.221 ], [ -51.327, -30.225 ], [ -51.306, -30.187 ], [ -51.314, -30.155 ], [ -51.292, -30.084 ], [ -51.306, -30.07 ], [ -51.284, -30.007 ], [ -51.262, -30.014 ], [ -51.259, -30.047 ], [ -51.238, -30.04 ], [ -51.251, -30.108 ], [ -51.217, -30.156 ], [ -51.233, -30.19 ], [ -51.18, -30.2 ], [ -51.176, -30.225 ], [ -51.123, -30.256 ], [ -51.079, -30.238 ], [ -51.058, -30.242 ], [ -51.053, -30.265 ], [ -51.023, -30.264 ], [ -51.012, -30.296 ], [ -51.04, -30.344 ], [ -51.034, -30.376 ], [ -50.936, -30.432 ], [ -50.915, -30.436 ], [ -50.933, -30.381 ], [ -50.913, -30.317 ], [ -50.799, -30.324 ], [ -50.779, -30.293 ], [ -50.672, -30.289 ], [ -50.653, -30.252 ], [ -50.676, -30.218 ], [ -50.649, -30.19 ], [ -50.615, -30.186 ], [ -50.54, -30.268 ], [ -50.537, -30.32 ], [ -50.573, -30.409 ], [ -50.565, -30.45 ], [ -50.608, -30.485 ], [ -50.65, -30.439 ], [ -50.645, -30.392 ], [ -50.69, -30.353 ], [ -50.726, -30.363 ], [ -50.69, -30.464 ], [ -50.679, -30.642 ], [ -50.693, -30.726 ], [ -50.76, -30.815 ], [ -50.82, -30.831 ], [ -50.914, -30.893 ], [ -50.978, -30.893 ], [ -50.956, -30.923 ], [ -50.988, -31.046 ], [ -50.97, -31.074 ], [ -50.936, -31.088 ], [ -50.965, -31.101 ], [ -50.976, -31.131 ], [ -51.003, -31.133 ], [ -51.014, -31.063 ], [ -51.162, -31.078 ], [ -51.176, -31.149 ], [ -51.155, -31.212 ], [ -51.159, -31.286 ], [ -51.18, -31.359 ], [ -51.245, -31.464 ], [ -51.335, -31.519 ], [ -51.378, -31.527 ], [ -51.413, -31.518 ], [ -51.423, -31.485 ], [ -51.463, -31.557 ], [ -51.448, -31.613 ], [ -51.499, -31.575 ], [ -51.513, -31.616 ], [ -51.666, -31.77 ], [ -51.704, -31.793 ], [ -51.834, -31.8 ], [ -51.814, -31.828 ], [ -51.836, -31.855 ], [ -51.923, -31.869 ], [ -52.048, -31.808 ], [ -52.087, -31.828 ], [ -52.088, -31.859 ], [ -52.012, -31.951 ], [ -52.057, -31.988 ], [ -52.036, -32.028 ], [ -52.084, -32.147 ], [ -52.077, -32.167 ], [ -51.864, -31.932 ], [ -51.563, -31.777 ], [ -51.152, -31.482 ], [ -51.035, -31.378 ], [ -50.828, -31.143 ], [ -50.721, -31.045 ], [ -50.316, -30.462 ], [ -50.045, -29.815 ], [ -49.997, -29.765 ], [ -49.934, -29.634 ], [ -49.811, -29.443 ], [ -49.552, -29.127 ], [ -49.343, -28.924 ], [ -48.941, -28.645 ], [ -48.815, -28.61 ], [ -48.765, -28.544 ], [ -48.75, -28.511 ], [ -48.789, -28.521 ], [ -48.855, -28.475 ], [ -48.839, -28.429 ], [ -48.874, -28.419 ], [ -48.86, -28.391 ], [ -48.874, -28.346 ], [ -48.865, -28.321 ], [ -48.851, -28.324 ], [ -48.795, -28.371 ], [ -48.803, -28.452 ], [ -48.781, -28.487 ], [ -48.761, -28.487 ], [ -48.763, -28.457 ], [ -48.731, -28.384 ], [ -48.696, -28.342 ], [ -48.688, -28.278 ], [ -48.636, -28.23 ], [ -48.655, -28.213 ], [ -48.654, -28.19 ], [ -48.62, -28.069 ], [ -48.599, -28.042 ], [ -48.617, -27.991 ], [ -48.606, -27.932 ], [ -48.566, -27.86 ], [ -48.588, -27.854 ], [ -48.572, -27.825 ], [ -48.629, -27.768 ], [ -48.606, -27.75 ], [ -48.647, -27.647 ], [ -48.595, -27.601 ], [ -48.586, -27.613 ], [ -48.579, -27.576 ], [ -48.61, -27.559 ], [ -48.647, -27.48 ], [ -48.637, -27.447 ], [ -48.582, -27.417 ], [ -48.566, -27.367 ], [ -48.552, -27.387 ], [ -48.561, -27.325 ], [ -48.61, -27.305 ], [ -48.62, -27.247 ], [ -48.542, -27.182 ], [ -48.513, -27.198 ], [ -48.531, -27.209 ], [ -48.525, -27.221 ], [ -48.493, -27.216 ], [ -48.497, -27.175 ], [ -48.476, -27.154 ], [ -48.516, -27.121 ], [ -48.551, -27.158 ], [ -48.588, -27.151 ], [ -48.607, -27.104 ], [ -48.575, -27.016 ], [ -48.62, -26.983 ], [ -48.613, -26.918 ], [ -48.629, -26.865 ], [ -48.578, -26.777 ], [ -48.592, -26.764 ], [ -48.627, -26.771 ], [ -48.682, -26.719 ], [ -48.675, -26.595 ], [ -48.608, -26.437 ], [ -48.636, -26.419 ], [ -48.651, -26.377 ], [ -48.722, -26.345 ], [ -48.738, -26.319 ], [ -48.798, -26.305 ], [ -48.757, -26.291 ], [ -48.778, -26.263 ], [ -48.756, -26.249 ], [ -48.756, -26.204 ], [ -48.791, -26.135 ], [ -48.789, -26.063 ], [ -48.734, -26.225 ], [ -48.668, -26.236 ], [ -48.635, -26.195 ], [ -48.583, -26.173 ], [ -48.613, -26.041 ], [ -48.586, -25.996 ], [ -48.558, -25.88 ], [ -48.567, -25.864 ], [ -48.743, -25.873 ], [ -48.766, -25.887 ], [ -48.769, -25.867 ], [ -48.743, -25.852 ], [ -48.651, -25.844 ], [ -48.583, -25.855 ], [ -48.592, -25.829 ], [ -48.62, -25.818 ], [ -48.579, -25.797 ], [ -48.586, -25.818 ], [ -48.541, -25.845 ], [ -48.518, -25.77 ], [ -48.433, -25.622 ], [ -48.361, -25.571 ], [ -48.387, -25.544 ], [ -48.456, -25.551 ], [ -48.482, -25.58 ], [ -48.503, -25.572 ], [ -48.469, -25.544 ], [ -48.505, -25.523 ], [ -48.595, -25.528 ], [ -48.606, -25.544 ], [ -48.654, -25.517 ], [ -48.621, -25.5 ], [ -54.108, -25.5 ], [ -54.126, -25.552 ], [ -54.099, -25.597 ], [ -54.086, -25.591 ], [ -54.083, -25.55 ], [ -54.055, -25.571 ], [ -54.03, -25.562 ], [ -53.997, -25.575 ], [ -53.968, -25.653 ], [ -53.91, -25.629 ], [ -53.898, -25.639 ], [ -53.876, -25.698 ], [ -53.883, -25.736 ], [ -53.84, -25.791 ], [ -53.833, -25.962 ], [ -53.765, -26.028 ], [ -53.733, -26.126 ], [ -53.667, -26.219 ], [ -53.673, -26.293 ], [ -53.724, -26.376 ], [ -53.713, -26.501 ], [ -53.737, -26.525 ], [ -53.727, -26.549 ], [ -53.742, -26.601 ], [ -53.74, -26.676 ], [ -53.774, -26.714 ], [ -53.748, -26.739 ], [ -53.753, -26.773 ], [ -53.734, -26.777 ], [ -53.713, -26.905 ], [ -53.768, -27.024 ], [ -53.801, -27.039 ], [ -53.83, -27.157 ], [ -53.842, -27.164 ], [ -53.882, -27.12 ], [ -53.909, -27.168 ], [ -53.964, -27.154 ], [ -53.962, -27.191 ], [ -54.005, -27.188 ], [ -54.092, -27.285 ], [ -54.158, -27.279 ], [ -54.156, -27.258 ], [ -54.177, -27.243 ], [ -54.232, -27.352 ], [ -54.232, -27.381 ], [ -54.261, -27.389 ], [ -54.287, -27.428 ], [ -54.307, -27.429 ], [ -54.348, -27.394 ], [ -54.348, -27.436 ], [ -54.372, -27.454 ], [ -54.389, -27.411 ], [ -54.445, -27.409 ], [ -54.465, -27.423 ], [ -54.448, -27.459 ], [ -54.543, -27.487 ], [ -54.589, -27.453 ], [ -54.626, -27.515 ], [ -54.651, -27.526 ], [ -54.666, -27.504 ], [ -54.69, -27.551 ], [ -54.774, -27.564 ], [ -54.794, -27.549 ], [ -54.792, -27.523 ], [ -54.805, -27.526 ], [ -54.828, -27.545 ], [ -54.845, -27.612 ], [ -54.898, -27.624 ], [ -54.913, -27.737 ], [ -54.985, -27.785 ], [ -55.081, -27.778 ], [ -55.03, -27.851 ], [ -55.1, -27.844 ], [ -55.119, -27.881 ], [ -55.178, -27.854 ], [ -55.26, -27.919 ], [ -55.314, -27.915 ], [ -55.338, -27.963 ], [ -55.381, -27.978 ], [ -55.383, -28.014 ], [ -55.441, -28.079 ], [ -55.506, -28.079 ], [ -55.553, -28.146 ], [ -55.577, -28.144 ], [ -55.582, -28.121 ], [ -55.605, -28.117 ], [ -55.684, -28.196 ], [ -55.773, -28.232 ], [ -55.767, -28.258 ], [ -55.687, -28.29 ], [ -55.664, -28.327 ], [ -55.694, -28.4 ], [ -55.715, -28.404 ], [ -55.735, -28.366 ], [ -55.842, -28.346 ], [ -55.906, -28.378 ], [ -55.902, -28.465 ], [ -56.012, -28.497 ], [ -56.022, -28.586 ], [ -56.041, -28.609 ], [ -56.103, -28.648 ], [ -56.185, -28.744 ], [ -56.286, -28.78 ], [ -56.301, -28.881 ], [ -56.323, -28.916 ], [ -56.392, -28.952 ], [ -56.428, -29.07 ], [ -56.548, -29.11 ], [ -56.617, -29.161 ], [ -56.651, -29.209 ], [ -56.65, -29.251 ], [ -56.689, -29.33 ], [ -56.77, -29.379 ], [ -56.819, -29.475 ], [ -56.966, -29.601 ], [ -57.021, -29.683 ], [ -57.113, -29.766 ], [ -57.22, -29.778 ], [ -57.292, -29.815 ], [ -57.309, -29.849 ], [ -57.325, -29.981 ], [ -57.411, -30.04 ], [ -57.506, -30.144 ], [ -57.612, -30.183 ] ] ], [ [ [ -54.128, -25.501 ], [ -54.602, -25.5 ], [ -54.6, -25.575 ], [ -54.546, -25.575 ], [ -54.532, -25.611 ], [ -54.473, -25.626 ], [ -54.447, -25.689 ], [ -54.433, -25.677 ], [ -54.437, -25.645 ], [ -54.405, -25.62 ], [ -54.395, -25.581 ], [ -54.35, -25.582 ], [ -54.299, -25.553 ], [ -54.256, -25.599 ], [ -54.244, -25.578 ], [ -54.19, -25.581 ], [ -54.215, -25.531 ], [ -54.165, -25.534 ], [ -54.128, -25.501 ] ] ], [ [ [ -48.427, -27.389 ], [ -48.446, -27.412 ], [ -48.517, -27.428 ], [ -48.512, -27.445 ], [ -48.538, -27.476 ], [ -48.504, -27.556 ], [ -48.547, -27.577 ], [ -48.524, -27.634 ], [ -48.559, -27.674 ], [ -48.544, -27.682 ], [ -48.564, -27.74 ], [ -48.564, -27.817 ], [ -48.486, -27.774 ], [ -48.497, -27.703 ], [ -48.407, -27.579 ], [ -48.412, -27.524 ], [ -48.377, -27.458 ], [ -48.39, -27.421 ], [ -48.427, -27.389 ] ] ], [ [ [ -48.548, -26.352 ], [ -48.489, -26.236 ], [ -48.516, -26.184 ], [ -48.548, -26.167 ], [ -48.566, -26.181 ], [ -48.558, -26.205 ], [ -48.63, -26.24 ], [ -48.703, -26.312 ], [ -48.643, -26.359 ], [ -48.611, -26.413 ], [ -48.583, -26.421 ], [ -48.575, -26.376 ], [ -48.548, -26.352 ] ] ] ] } }
]
}
